{"type":"FeatureCollection","name":"南阳高新技术产业开发区","features":[{"type":"Feature","properties":{"regionCode":"411371060","sourceCode":"411371060000","name":"张衡街道","sourceName":"张衡街道办事处","parentCode":"411371","parentName":"南阳高新技术产业开发区","regionLevel":"township","regionType":"street","isManagementZone":true,"source":"ruiduobao","sourceVersion":"mixed-legacy~2018-2020","geometryRepaired":false,"match2020":false,"match2023":false},"geometry":{"type":"MultiPolygon","coordinates":[[[[112.537071,33.022871],[112.5371,33.022986],[112.536553,33.023031],[112.534834,33.023231],[112.533402,33.023337],[112.533267,33.024897],[112.532959,33.024877],[112.53228,33.024832],[112.530679,33.024661],[112.529445,33.024513],[112.527635,33.02436],[112.526911,33.024396],[112.525867,33.024569],[112.525089,33.024722],[112.524392,33.024821],[112.524961,33.02599],[112.525286,33.026908],[112.525285,33.026908],[112.52535,33.027088],[112.525414,33.027267],[112.525414,33.027267],[112.526371,33.029941],[112.527342,33.034007],[112.526696,33.036298],[112.526039,33.038646],[112.526071,33.040788],[112.525736,33.040716],[112.525763,33.040795],[112.5258,33.04133],[112.525907,33.041355],[112.526758,33.041387],[112.527487,33.041418],[112.527487,33.039804],[112.532744,33.039503],[112.532744,33.039505],[112.532948,33.039491],[112.532959,33.0395],[112.533174,33.039657],[112.533174,33.039657],[112.534086,33.040325],[112.535824,33.041661],[112.538369,33.043433],[112.541132,33.045508],[112.54137,33.045688],[112.541372,33.045688],[112.543715,33.047444],[112.543731,33.047456],[112.543731,33.047457],[112.543945,33.047617],[112.54416,33.047776],[112.54416,33.047776],[112.550734,33.052666],[112.55347,33.054716],[112.554932,33.055811],[112.555144,33.055969],[112.555146,33.055971],[112.555146,33.05597],[112.556774,33.057178],[112.55792,33.058138],[112.558258,33.0585],[112.560481,33.057486],[112.559271,33.055377],[112.558845,33.054716],[112.55873,33.054537],[112.55873,33.054537],[112.558351,33.053948],[112.557394,33.05221],[112.557281,33.051996],[112.558443,33.05165],[112.558161,33.051],[112.557732,33.051104],[112.557574,33.050775],[112.557397,33.050805],[112.55733,33.050441],[112.55874,33.050382],[112.558818,33.049645],[112.559489,33.049645],[112.559491,33.049213],[112.562844,33.04888],[112.565703,33.048539],[112.565703,33.048541],[112.565918,33.048514],[112.566243,33.048473],[112.567393,33.048359],[112.567377,33.048289],[112.567307,33.047466],[112.566709,33.047572],[112.566605,33.046463],[112.566543,33.045508],[112.56653,33.045254],[112.566572,33.044961],[112.566605,33.044123],[112.566554,33.04372],[112.566521,33.043163],[112.566548,33.042657],[112.566454,33.041432],[112.56646,33.040989],[112.566409,33.039104],[112.566398,33.038142],[112.566393,33.038027],[112.571011,33.037344],[112.575155,33.03644],[112.575096,33.036298],[112.574517,33.034886],[112.573841,33.032512],[112.571642,33.029941],[112.567498,33.029593],[112.565918,33.029269],[112.561468,33.028358],[112.559336,33.027267],[112.559339,33.027267],[112.558987,33.027088],[112.558255,33.026712],[112.554932,33.025864],[112.554017,33.02563],[112.551343,33.024034],[112.549339,33.023004],[112.547593,33.022988],[112.54416,33.022946],[112.54416,33.022945],[112.543945,33.022943],[112.538734,33.022855],[112.537881,33.022831],[112.537071,33.022871]]]]}},{"type":"Feature","properties":{"regionCode":"411371061","sourceCode":"411371061000","name":"百里奚街道","sourceName":"百里奚街道办事处","parentCode":"411371","parentName":"南阳高新技术产业开发区","regionLevel":"township","regionType":"street","isManagementZone":true,"source":"ruiduobao","sourceVersion":"mixed-legacy~2018-2020","geometryRepaired":false,"match2020":false,"match2023":false},"geometry":{"type":"MultiPolygon","coordinates":[[[[112.478272,32.98084],[112.478271,32.98084],[112.478129,32.980921],[112.477971,32.980892],[112.477477,32.980633],[112.47711,32.980318],[112.475892,32.980102],[112.474717,32.980278],[112.473792,32.980473],[112.473258,32.980739],[112.473216,32.98084],[112.473215,32.98084],[112.47314,32.98102],[112.473063,32.9812],[112.473065,32.9812],[112.473033,32.981277],[112.473033,32.981704],[112.473224,32.982159],[112.473234,32.982467],[112.4731,32.982726],[112.47255,32.983097],[112.472274,32.983853],[112.472515,32.98449],[112.472521,32.984487],[112.472805,32.984535],[112.472904,32.984712],[112.472961,32.984949],[112.47277,32.985477],[112.472762,32.985756],[112.472827,32.986049],[112.472977,32.986388],[112.473046,32.986499],[112.473173,32.986634],[112.47321,32.986717],[112.47324,32.986802],[112.473325,32.986976],[112.473347,32.987131],[112.473317,32.98752],[112.473215,32.987822],[112.473167,32.988092],[112.473186,32.988326],[112.47314,32.988373],[112.472955,32.988483],[112.472867,32.988562],[112.472773,32.988656],[112.472572,32.988917],[112.472411,32.989097],[112.47232,32.989178],[112.472218,32.989241],[112.471987,32.989529],[112.47181,32.989799],[112.471743,32.989961],[112.47365,32.990015],[112.473835,32.990031],[112.47383,32.990056],[112.47383,32.990056],[112.473795,32.990236],[112.473769,32.990376],[112.47376,32.990416],[112.473761,32.990416],[112.473725,32.990609],[112.473653,32.991048],[112.47291,32.993336],[112.472352,32.993279],[112.472411,32.993417],[112.472389,32.993592],[112.472354,32.993651],[112.472137,32.993671],[112.472,32.993666],[112.471772,32.993725],[112.471467,32.993855],[112.471467,32.99399],[112.469927,32.993909],[112.469769,32.995284],[112.469613,32.996314],[112.469731,32.997459],[112.469712,32.997653],[112.469763,32.997653],[112.469967,32.997673],[112.470265,32.997711],[112.470563,32.997767],[112.470627,32.997767],[112.470855,32.997866],[112.471354,32.99815],[112.47166,32.998296],[112.472022,32.998507],[112.472253,32.998627],[112.472392,32.998683],[112.472309,32.998955],[112.472792,32.99916],[112.472743,32.99927],[112.472741,32.99927],[112.472663,32.99945],[112.472582,32.99963],[112.472584,32.99963],[112.47254,32.999731],[112.472033,33.00145],[112.471797,33.001875],[112.471872,33.001913],[112.472059,33.001978],[112.472644,33.002053],[112.472891,33.002127],[112.473046,33.002224],[112.473181,33.002442],[112.473304,33.002687],[112.473366,33.002964],[112.473427,33.00315],[112.473438,33.003441],[112.473414,33.003645],[112.473309,33.003794],[112.473092,33.004005],[112.472896,33.004111],[112.472658,33.004316],[112.472625,33.004406],[112.472628,33.004653],[112.472684,33.004824],[112.472872,33.005229],[112.473076,33.005609],[112.473366,33.006027],[112.473846,33.007019],[112.474017,33.007478],[112.474047,33.007597],[112.474144,33.008207],[112.474199,33.008484],[112.474197,33.008484],[112.474211,33.008542],[112.474197,33.008663],[112.474181,33.008843],[112.474182,33.008843],[112.474152,33.009199],[112.473792,33.009197],[112.472743,33.00921],[112.472062,33.009278],[112.471086,33.009491],[112.469552,33.010197],[112.467478,33.011243],[112.474017,33.016329],[112.475902,33.017696],[112.4759,33.017696],[112.47615,33.017876],[112.476397,33.018056],[112.476398,33.018056],[112.476646,33.018236],[112.477813,33.019265],[112.477813,33.019266],[112.478027,33.019455],[112.478242,33.019644],[112.478242,33.019643],[112.478312,33.019704],[112.479393,33.020926],[112.481329,33.023053],[112.482458,33.024317],[112.481581,33.024987],[112.482238,33.026501],[112.482902,33.026908],[112.482901,33.026908],[112.483196,33.027088],[112.483242,33.027115],[112.482523,33.027267],[112.482528,33.027267],[112.480503,33.027701],[112.480047,33.027863],[112.478462,33.028093],[112.478201,33.028174],[112.478027,33.028223],[112.47796,33.028241],[112.476826,33.028959],[112.47719,33.030207],[112.477606,33.031502],[112.477813,33.031502],[112.478027,33.031502],[112.478242,33.031502],[112.478242,33.031501],[112.480001,33.031491],[112.480146,33.032615],[112.479621,33.0327],[112.479776,33.033933],[112.483027,33.035579],[112.483445,33.034998],[112.483526,33.0346],[112.48348,33.03402],[112.4834,33.0336],[112.483413,33.032892],[112.483472,33.03226],[112.483408,33.031414],[112.489014,33.031308],[112.490661,33.031275],[112.491924,33.031497],[112.492117,33.033182],[112.492393,33.033924],[112.492849,33.034344],[112.493638,33.034547],[112.494045,33.034587],[112.494094,33.034306],[112.494284,33.034104],[112.494944,33.033903],[112.49559,33.033712],[112.49559,33.033362],[112.495577,33.03302],[112.495944,33.032617],[112.49603,33.03199],[112.496164,33.031536],[112.496757,33.031102],[112.497605,33.030695],[112.497967,33.03058],[112.498034,33.030544],[112.499048,33.029896],[112.499759,33.029773],[112.499785,33.029764],[112.499785,33.029766],[112.5,33.029698],[112.500043,33.029683],[112.500215,33.029642],[112.500215,33.029641],[112.500394,33.029597],[112.500732,33.029572],[112.500842,33.029674],[112.500874,33.02975],[112.500652,33.02997],[112.500515,33.030121],[112.500384,33.030164],[112.500249,33.030717],[112.500212,33.031016],[112.500021,33.031626],[112.5,33.031677],[112.499759,33.032262],[112.499785,33.032289],[112.499785,33.032291],[112.5,33.032507],[112.5002,33.032709],[112.500215,33.032725],[112.500215,33.032724],[112.500807,33.033323],[112.503315,33.036298],[112.503465,33.036477],[112.503465,33.036478],[112.503465,33.036478],[112.506306,33.039878],[112.507599,33.041935],[112.509063,33.045328],[112.509063,33.045328],[112.509141,33.045508],[112.509219,33.045688],[112.509219,33.045688],[112.509248,33.045755],[112.509913,33.045508],[112.510986,33.045112],[112.514165,33.043932],[112.516278,33.04216],[112.518985,33.041724],[112.51984,33.042196],[112.520307,33.042281],[112.521758,33.042838],[112.521758,33.042839],[112.521973,33.04292],[112.522187,33.043003],[112.522187,33.043002],[112.526326,33.044584],[112.526841,33.042787],[112.52701,33.041398],[112.525907,33.041355],[112.5258,33.04133],[112.525763,33.040795],[112.525736,33.040716],[112.526071,33.040788],[112.526039,33.038646],[112.526646,33.036478],[112.526648,33.036478],[112.526696,33.036298],[112.526747,33.036118],[112.526747,33.036118],[112.527342,33.034007],[112.526371,33.029941],[112.52535,33.027088],[112.524961,33.02599],[112.524392,33.024821],[112.523864,33.023986],[112.522053,33.024645],[112.521973,33.024681],[112.520342,33.025387],[112.519006,33.025585],[112.517394,33.022718],[112.517139,33.021893],[112.516155,33.019997],[112.51465,33.020186],[112.514532,33.019675],[112.513757,33.019774],[112.513679,33.018929],[112.513376,33.019126],[112.512856,33.019268],[112.512872,33.019365],[112.512467,33.01952],[112.511485,33.020494],[112.511939,33.024216],[112.512089,33.025851],[112.510986,33.025846],[112.505598,33.025824],[112.503699,33.025597],[112.501556,33.025214],[112.50166,33.025048],[112.501674,33.024969],[112.501668,33.024897],[112.501432,33.024544],[112.501389,33.024495],[112.501416,33.024434],[112.501687,33.024236],[112.502079,33.024022],[112.502253,33.023939],[112.502312,33.023869],[112.502355,33.023708],[112.502543,33.023251],[112.502752,33.022624],[112.50283,33.022268],[112.502859,33.021753],[112.502891,33.021504],[112.503144,33.02093],[112.50327,33.020676],[112.503366,33.020181],[112.503471,33.020008],[112.503605,33.019837],[112.503707,33.019772],[112.503988,33.019682],[112.503672,33.019648],[112.503157,33.019556],[112.502553,33.019396],[112.502264,33.019347],[112.501955,33.01934],[112.501776,33.019356],[112.501285,33.019466],[112.501062,33.018247],[112.500233,33.018258],[112.500215,33.018258],[112.5,33.018258],[112.498616,33.018243],[112.498613,33.018238],[112.498533,33.018236],[112.498426,33.017928],[112.498412,33.017876],[112.498348,33.017626],[112.498125,33.017291],[112.498002,33.017087],[112.497908,33.017035],[112.497696,33.017105],[112.497511,33.016747],[112.497975,33.016572],[112.497685,33.015319],[112.497774,33.015287],[112.498007,33.015218],[112.498214,33.015164],[112.498401,33.015038],[112.498428,33.01497],[112.498949,33.01488],[112.498707,33.012766],[112.499775,33.01204],[112.499785,33.012021],[112.499785,33.012022],[112.499866,33.011884],[112.5,33.011817],[112.500215,33.011707],[112.500215,33.011705],[112.503718,33.009885],[112.503361,33.008843],[112.503361,33.008843],[112.503299,33.008663],[112.502334,33.005816],[112.508178,33.004417],[112.504978,32.999814],[112.504764,32.99945],[112.504686,32.999317],[112.504206,32.99945],[112.503559,32.99963],[112.50356,32.99963],[112.502519,32.99992],[112.502303,32.99963],[112.502304,32.99963],[112.50217,32.99945],[112.501373,32.99837],[112.500966,32.997666],[112.500684,32.997709],[112.500266,32.997079],[112.5,32.997095],[112.4997,32.997108],[112.4997,32.997401],[112.499515,32.997423],[112.499549,32.997646],[112.49886,32.997691],[112.498844,32.997486],[112.498308,32.997513],[112.498278,32.997398],[112.498793,32.997367],[112.498699,32.996778],[112.498857,32.996762],[112.498887,32.996944],[112.499469,32.99689],[112.499445,32.996692],[112.499437,32.996674],[112.498184,32.996771],[112.497294,32.996863],[112.497001,32.995093],[112.49912,32.994863],[112.498777,32.994316],[112.496022,32.994314],[112.492214,32.994211],[112.492248,32.992616],[112.489829,32.992569],[112.489829,32.990416],[112.489829,32.990056],[112.489829,32.989196],[112.489014,32.989167],[112.486793,32.989084],[112.486935,32.987167],[112.482214,32.986861],[112.482083,32.986818],[112.482614,32.983083],[112.48274,32.982345],[112.483016,32.981704],[112.482719,32.98102],[112.482665,32.980892],[112.479948,32.979312],[112.478996,32.980444],[112.478328,32.980809],[112.478272,32.98084]]]]}},{"type":"Feature","properties":{"regionCode":"411371401","sourceCode":"411371401000","name":"高新区产业集聚工业园","sourceName":"高新区产业集聚工业园","parentCode":"411371","parentName":"南阳高新技术产业开发区","regionLevel":"township","regionType":"industrialPark","isManagementZone":true,"source":"ruiduobao","sourceVersion":"mixed-legacy~2018-2020","geometryRepaired":false,"match2020":false,"match2023":false},"geometry":{"type":"MultiPolygon","coordinates":[[[[112.566133,32.920529],[112.565918,32.920594],[112.558767,32.922763],[112.555146,32.923864],[112.555146,32.923864],[112.554932,32.923929],[112.549662,32.925527],[112.549661,32.925527],[112.549068,32.925707],[112.548476,32.925888],[112.548476,32.925888],[112.546676,32.926435],[112.549092,32.934929],[112.549133,32.935061],[112.550262,32.934929],[112.554932,32.934386],[112.555146,32.934361],[112.555146,32.934361],[112.562326,32.933524],[112.562836,32.934749],[112.562836,32.934749],[112.562911,32.934929],[112.562986,32.935109],[112.562986,32.935109],[112.565076,32.940108],[112.565703,32.940751],[112.565703,32.940752],[112.565918,32.940971],[112.566039,32.941092],[112.566133,32.941509],[112.566133,32.941509],[112.566302,32.942258],[112.566288,32.942317],[112.566468,32.943152],[112.566583,32.943865],[112.566608,32.943969],[112.566607,32.943969],[112.56665,32.944149],[112.566693,32.944329],[112.566694,32.944329],[112.566945,32.94536],[112.566554,32.945403],[112.566487,32.945436],[112.56606,32.945502],[112.566133,32.945961],[112.566133,32.945961],[112.566138,32.945995],[112.566202,32.946112],[112.566304,32.946229],[112.566347,32.946316],[112.566358,32.946681],[112.566371,32.946814],[112.566495,32.946834],[112.566918,32.946807],[112.567573,32.946632],[112.567653,32.946769],[112.56805,32.947989],[112.568785,32.950368],[112.565918,32.950856],[112.565703,32.950899],[112.565703,32.950899],[112.565548,32.950931],[112.56562,32.951081],[112.565703,32.951411],[112.565703,32.951412],[112.565705,32.951418],[112.565709,32.951433],[112.565832,32.95184],[112.565918,32.952191],[112.565972,32.952407],[112.565918,32.952416],[112.563767,32.952754],[112.563504,32.952765],[112.56341,32.952783],[112.563099,32.952898],[112.562326,32.953035],[112.562348,32.953127],[112.562383,32.953188],[112.562383,32.953188],[112.562445,32.953294],[112.562477,32.953368],[112.562557,32.953548],[112.562557,32.953548],[112.562726,32.953926],[112.562828,32.954109],[112.56297,32.954487],[112.562796,32.954547],[112.562257,32.954689],[112.561187,32.954957],[112.561015,32.954989],[112.561219,32.955547],[112.561637,32.956893],[112.561948,32.957847],[112.562034,32.958277],[112.561664,32.958448],[112.561441,32.958533],[112.561184,32.958657],[112.561028,32.958754],[112.561372,32.959476],[112.561321,32.959488],[112.561699,32.960394],[112.561758,32.960385],[112.561809,32.960498],[112.560594,32.961047],[112.560036,32.961229],[112.560036,32.96131],[112.560114,32.961718],[112.559996,32.962109],[112.559931,32.962238],[112.559921,32.962328],[112.559953,32.962366],[112.560108,32.962312],[112.560084,32.962586],[112.560076,32.962692],[112.560095,32.962766],[112.560097,32.962766],[112.560143,32.962926],[112.560379,32.963367],[112.560411,32.963457],[112.56043,32.963545],[112.560414,32.963653],[112.560259,32.963808],[112.560047,32.963986],[112.559786,32.964286],[112.559593,32.964432],[112.559403,32.964607],[112.559371,32.964884],[112.558102,32.965053],[112.55822,32.965415],[112.558343,32.965478],[112.558488,32.965845],[112.558716,32.966705],[112.55896,32.9681],[112.565703,32.969448],[112.565703,32.96945],[112.565813,32.96947],[112.565918,32.969536],[112.566133,32.969664],[112.566133,32.969662],[112.569697,32.971804],[112.572151,32.973275],[112.574509,32.974749],[112.574582,32.974736],[112.574187,32.971804],[112.574042,32.970701],[112.57669,32.969157],[112.57669,32.969157],[112.576904,32.969031],[112.577119,32.968908],[112.577119,32.968906],[112.578774,32.96794],[112.581912,32.965395],[112.587502,32.962766],[112.587504,32.962766],[112.587676,32.962685],[112.587676,32.962688],[112.587891,32.962586],[112.588105,32.962485],[112.588105,32.962484],[112.588188,32.962445],[112.588207,32.962424],[112.588301,32.962328],[112.591783,32.95737],[112.595258,32.953548],[112.595261,32.953548],[112.595425,32.953368],[112.598877,32.949585],[112.599593,32.948797],[112.602058,32.94665],[112.602163,32.944329],[112.602163,32.944329],[112.602171,32.944149],[112.602206,32.94342],[112.602254,32.943413],[112.602946,32.943379],[112.602975,32.94335],[112.602994,32.943294],[112.602978,32.943055],[112.603144,32.943039],[112.60433,32.943017],[112.605223,32.942974],[112.605344,32.942999],[112.60533,32.942776],[112.605346,32.942553],[112.605317,32.942222],[112.605432,32.942206],[112.605837,32.941596],[112.609863,32.938629],[112.610078,32.938472],[112.610078,32.938471],[112.611685,32.937288],[112.611073,32.935109],[112.611073,32.935109],[112.611022,32.934929],[112.60996,32.931151],[112.609863,32.931144],[112.609649,32.931124],[112.609649,32.931125],[112.598877,32.930149],[112.598754,32.930138],[112.589554,32.926604],[112.588896,32.925707],[112.587891,32.924341],[112.587676,32.924048],[112.587676,32.924048],[112.582279,32.916692],[112.578189,32.917517],[112.577588,32.921567],[112.577119,32.921515],[112.577119,32.921513],[112.576904,32.921491],[112.574616,32.921225],[112.567978,32.919969],[112.566133,32.920531],[112.566133,32.920529]]]]}}]}