{"type":"FeatureCollection","name":"411303-management-zone-display-overlay","features":[{"type":"Feature","properties":{"regionCode":"411371060","sourceCode":"411371060000","name":"张衡街道","sourceName":"张衡街道办事处","parentCode":"411371","parentName":"南阳高新技术产业开发区","regionLevel":"township","regionType":"street","isManagementZone":true,"source":"ruiduobao","sourceVersion":"mixed-legacy~2018-2020","geometryRepaired":false,"match2020":false,"match2023":false,"renderOnly":true,"sourceRegionCode":"411371","displayCountyCode":"411303"},"geometry":{"type":"MultiPolygon","coordinates":[[[[112.529445,33.024513],[112.527635,33.02436],[112.526911,33.024396],[112.525867,33.024569],[112.525089,33.024722],[112.524392,33.024821],[112.524961,33.02599],[112.525286,33.026908],[112.525285,33.026908],[112.52535,33.027088],[112.525414,33.027267],[112.526371,33.029941],[112.527342,33.034007],[112.526696,33.036298],[112.526039,33.038646],[112.526071,33.040788],[112.525736,33.040716],[112.525763,33.040795],[112.5258,33.04133],[112.525907,33.041355],[112.526758,33.041387],[112.527487,33.041418],[112.527487,33.039804],[112.532744,33.039503],[112.532744,33.039505],[112.532948,33.039491],[112.532959,33.0395],[112.533174,33.039657],[112.534086,33.040325],[112.535824,33.041661],[112.538369,33.043433],[112.541132,33.045508],[112.54137,33.045688],[112.541372,33.045688],[112.543715,33.047444],[112.543731,33.047456],[112.543731,33.047457],[112.543945,33.047617],[112.54416,33.047776],[112.550734,33.052666],[112.55347,33.054716],[112.554932,33.055811],[112.555144,33.055969],[112.555146,33.055971],[112.555146,33.05597],[112.556774,33.057178],[112.55792,33.058138],[112.558258,33.0585],[112.560481,33.057486],[112.559271,33.055377],[112.558845,33.054716],[112.55873,33.054537],[112.558351,33.053948],[112.557394,33.05221],[112.557281,33.051996],[112.558443,33.05165],[112.558161,33.051],[112.557732,33.051104],[112.557574,33.050775],[112.557397,33.050805],[112.55733,33.050441],[112.55874,33.050382],[112.558818,33.049645],[112.559489,33.049645],[112.559491,33.049213],[112.562844,33.04888],[112.565703,33.048539],[112.565703,33.048541],[112.565918,33.048514],[112.566243,33.048473],[112.567393,33.048359],[112.567377,33.048289],[112.567307,33.047466],[112.566709,33.047572],[112.566605,33.046463],[112.566543,33.045508],[112.56653,33.045254],[112.566572,33.044961],[112.566605,33.044123],[112.566554,33.04372],[112.566521,33.043163],[112.566548,33.042657],[112.566454,33.041432],[112.56646,33.040989],[112.566409,33.039104],[112.566398,33.038142],[112.566393,33.038027],[112.571011,33.037344],[112.575155,33.03644],[112.575096,33.036298],[112.574517,33.034886],[112.57384268518227,33.032517918080906],[112.530443144531,33.0257546210938],[112.53050951457371,33.02464067273656],[112.529445,33.024513]]]]}},{"type":"Feature","properties":{"regionCode":"411371061","sourceCode":"411371061000","name":"百里奚街道","sourceName":"百里奚街道办事处","parentCode":"411371","parentName":"南阳高新技术产业开发区","regionLevel":"township","regionType":"street","isManagementZone":true,"source":"ruiduobao","sourceVersion":"mixed-legacy~2018-2020","geometryRepaired":false,"match2020":false,"match2023":false,"renderOnly":true,"sourceRegionCode":"411371","displayCountyCode":"411303"},"geometry":{"type":"MultiPolygon","coordinates":[[[[112.478271,32.98084],[112.478129,32.980921],[112.477971,32.980892],[112.477477,32.980633],[112.47711,32.980318],[112.475892,32.980102],[112.474717,32.980278],[112.473792,32.980473],[112.473258,32.980739],[112.473216,32.98084],[112.473215,32.98084],[112.47314,32.98102],[112.473063,32.9812],[112.473065,32.9812],[112.473033,32.981277],[112.473033,32.981704],[112.473224,32.982159],[112.473234,32.982467],[112.4731,32.982726],[112.47255,32.983097],[112.472274,32.983853],[112.472515,32.98449],[112.472521,32.984487],[112.472805,32.984535],[112.472904,32.984712],[112.472961,32.984949],[112.47277,32.985477],[112.472762,32.985756],[112.472827,32.986049],[112.472977,32.986388],[112.473046,32.986499],[112.473173,32.986634],[112.47321,32.986717],[112.47324,32.986802],[112.473325,32.986976],[112.473347,32.987131],[112.473317,32.98752],[112.473215,32.987822],[112.473167,32.988092],[112.473186,32.988326],[112.47314,32.988373],[112.472955,32.988483],[112.472867,32.988562],[112.472773,32.988656],[112.472572,32.988917],[112.472411,32.989097],[112.47232,32.989178],[112.472218,32.989241],[112.471987,32.989529],[112.47181,32.989799],[112.471743,32.989961],[112.47365,32.990015],[112.473835,32.990031],[112.47383,32.990056],[112.473795,32.990236],[112.473769,32.990376],[112.47376,32.990416],[112.473761,32.990416],[112.473725,32.990609],[112.473653,32.991048],[112.47291,32.993336],[112.472352,32.993279],[112.472411,32.993417],[112.472389,32.993592],[112.472354,32.993651],[112.472137,32.993671],[112.472,32.993666],[112.471772,32.993725],[112.471467,32.993855],[112.471467,32.99399],[112.469927,32.993909],[112.469769,32.995284],[112.469613,32.996314],[112.469731,32.997459],[112.469712,32.997653],[112.469763,32.997653],[112.469967,32.997673],[112.470265,32.997711],[112.470563,32.997767],[112.470627,32.997767],[112.470855,32.997866],[112.471354,32.99815],[112.47166,32.998296],[112.472022,32.998507],[112.472253,32.998627],[112.472392,32.998683],[112.472309,32.998955],[112.472792,32.99916],[112.472743,32.99927],[112.472741,32.99927],[112.472663,32.99945],[112.472582,32.99963],[112.472584,32.99963],[112.47254,32.999731],[112.472033,33.00145],[112.471797,33.001875],[112.471872,33.001913],[112.472059,33.001978],[112.472644,33.002053],[112.472891,33.002127],[112.473046,33.002224],[112.473181,33.002442],[112.473304,33.002687],[112.473366,33.002964],[112.473427,33.00315],[112.473438,33.003441],[112.473414,33.003645],[112.473309,33.003794],[112.473092,33.004005],[112.472896,33.004111],[112.472658,33.004316],[112.472625,33.004406],[112.472628,33.004653],[112.472684,33.004824],[112.472872,33.005229],[112.473076,33.005609],[112.473366,33.006027],[112.473846,33.007019],[112.474017,33.007478],[112.474047,33.007597],[112.474144,33.008207],[112.474199,33.008484],[112.474197,33.008484],[112.474211,33.008542],[112.474197,33.008663],[112.474181,33.008843],[112.474182,33.008843],[112.474152,33.009199],[112.473792,33.009197],[112.472743,33.00921],[112.472062,33.009278],[112.471086,33.009491],[112.469552,33.010197],[112.467478,33.011243],[112.474017,33.016329],[112.475902,33.017696],[112.4759,33.017696],[112.47615,33.017876],[112.476397,33.018056],[112.476398,33.018056],[112.476646,33.018236],[112.477813,33.019265],[112.477813,33.019266],[112.478027,33.019455],[112.478242,33.019644],[112.478242,33.019643],[112.478312,33.019704],[112.479393,33.020926],[112.481329,33.023053],[112.482458,33.024317],[112.481581,33.024987],[112.482238,33.026501],[112.482902,33.026908],[112.482901,33.026908],[112.483196,33.027088],[112.483242,33.027115],[112.482523,33.027267],[112.482528,33.027267],[112.480503,33.027701],[112.480047,33.027863],[112.478462,33.028093],[112.478201,33.028174],[112.478027,33.028223],[112.47796,33.028241],[112.476826,33.028959],[112.47719,33.030207],[112.477606,33.031502],[112.477813,33.031502],[112.478027,33.031502],[112.478242,33.031502],[112.478242,33.031501],[112.480001,33.031491],[112.480146,33.032615],[112.479621,33.0327],[112.479776,33.033933],[112.483027,33.035579],[112.483445,33.034998],[112.483526,33.0346],[112.48348,33.03402],[112.4834,33.0336],[112.483413,33.032892],[112.483472,33.03226],[112.483408,33.031414],[112.489014,33.031308],[112.490661,33.031275],[112.491924,33.031497],[112.492117,33.033182],[112.492393,33.033924],[112.492849,33.034344],[112.493638,33.034547],[112.494045,33.034587],[112.494094,33.034306],[112.494284,33.034104],[112.494944,33.033903],[112.49559,33.033712],[112.49559,33.033362],[112.495577,33.03302],[112.495944,33.032617],[112.49603,33.03199],[112.496164,33.031536],[112.496757,33.031102],[112.497605,33.030695],[112.497967,33.03058],[112.498034,33.030544],[112.499048,33.029896],[112.499759,33.029773],[112.499785,33.029764],[112.499785,33.029766],[112.5,33.029698],[112.500043,33.029683],[112.500215,33.029642],[112.500215,33.029641],[112.500394,33.029597],[112.500732,33.029572],[112.500842,33.029674],[112.500874,33.02975],[112.500652,33.02997],[112.500515,33.030121],[112.500384,33.030164],[112.500249,33.030717],[112.500212,33.031016],[112.500021,33.031626],[112.5,33.031677],[112.499759,33.032262],[112.499785,33.032289],[112.499785,33.032291],[112.5,33.032507],[112.5002,33.032709],[112.500215,33.032725],[112.500215,33.032724],[112.500807,33.033323],[112.503315,33.036298],[112.503465,33.036477],[112.503465,33.036478],[112.506306,33.039878],[112.507599,33.041935],[112.509063,33.045328],[112.509141,33.045508],[112.509219,33.045688],[112.509248,33.045755],[112.509913,33.045508],[112.510986,33.045112],[112.514165,33.043932],[112.516278,33.04216],[112.518985,33.041724],[112.51984,33.042196],[112.520307,33.042281],[112.521758,33.042838],[112.521758,33.042839],[112.521973,33.04292],[112.522187,33.043003],[112.522187,33.043002],[112.526326,33.044584],[112.526841,33.042787],[112.52701,33.041398],[112.525907,33.041355],[112.5258,33.04133],[112.525763,33.040795],[112.525736,33.040716],[112.526071,33.040788],[112.526039,33.038646],[112.526646,33.036478],[112.526648,33.036478],[112.526696,33.036298],[112.526747,33.036118],[112.527342,33.034007],[112.526371,33.029941],[112.52535,33.027088],[112.524961,33.02599],[112.524392,33.024821],[112.523864,33.023986],[112.522053,33.024645],[112.521973,33.024681],[112.520342,33.025387],[112.519006,33.025585],[112.517394,33.022718],[112.517139,33.021893],[112.516155,33.019997],[112.51465,33.020186],[112.514532,33.019675],[112.513757,33.019774],[112.513679,33.018929],[112.513376,33.019126],[112.512856,33.019268],[112.512872,33.019365],[112.512467,33.01952],[112.511485,33.020494],[112.511939,33.024216],[112.512089,33.025851],[112.510986,33.025846],[112.505598,33.025824],[112.503699,33.025597],[112.501556,33.025214],[112.50166,33.025048],[112.501674,33.024969],[112.501668,33.024897],[112.501432,33.024544],[112.501389,33.024495],[112.501416,33.024434],[112.501687,33.024236],[112.502079,33.024022],[112.502253,33.023939],[112.502312,33.023869],[112.502355,33.023708],[112.502543,33.023251],[112.502752,33.022624],[112.50283,33.022268],[112.502859,33.021753],[112.502891,33.021504],[112.503144,33.02093],[112.50327,33.020676],[112.503366,33.020181],[112.503471,33.020008],[112.503605,33.019837],[112.503707,33.019772],[112.503988,33.019682],[112.503672,33.019648],[112.503157,33.019556],[112.502553,33.019396],[112.502264,33.019347],[112.501955,33.01934],[112.501776,33.019356],[112.501285,33.019466],[112.501062,33.018247],[112.500233,33.018258],[112.500215,33.018258],[112.5,33.018258],[112.498616,33.018243],[112.498613,33.018238],[112.498533,33.018236],[112.498426,33.017928],[112.498412,33.017876],[112.498348,33.017626],[112.498125,33.017291],[112.498002,33.017087],[112.497908,33.017035],[112.497696,33.017105],[112.497511,33.016747],[112.497975,33.016572],[112.497685,33.015319],[112.497774,33.015287],[112.498007,33.015218],[112.498214,33.015164],[112.498401,33.015038],[112.498428,33.01497],[112.498949,33.01488],[112.498707,33.012766],[112.499775,33.01204],[112.499785,33.012021],[112.499785,33.012022],[112.499866,33.011884],[112.5,33.011817],[112.500215,33.011707],[112.500215,33.011705],[112.503718,33.009885],[112.503361,33.008843],[112.503299,33.008663],[112.502334,33.005816],[112.508178,33.004417],[112.504978,32.999814],[112.504764,32.99945],[112.504686,32.999317],[112.504206,32.99945],[112.503559,32.99963],[112.50356,32.99963],[112.502519,32.99992],[112.502303,32.99963],[112.502304,32.99963],[112.50217,32.99945],[112.501373,32.99837],[112.500966,32.997666],[112.500684,32.997709],[112.500266,32.997079],[112.5,32.997095],[112.4997,32.997108],[112.4997,32.997401],[112.499515,32.997423],[112.499549,32.997646],[112.49886,32.997691],[112.498844,32.997486],[112.498308,32.997513],[112.498278,32.997398],[112.498793,32.997367],[112.498699,32.996778],[112.498857,32.996762],[112.498887,32.996944],[112.499469,32.99689],[112.499445,32.996692],[112.499437,32.996674],[112.498184,32.996771],[112.497294,32.996863],[112.497001,32.995093],[112.49912,32.994863],[112.498777,32.994316],[112.496022,32.994314],[112.492214,32.994211],[112.492248,32.992616],[112.489829,32.992569],[112.489829,32.990416],[112.489829,32.990056],[112.489829,32.989196],[112.489014,32.989167],[112.486793,32.989084],[112.486935,32.987167],[112.482214,32.986861],[112.482083,32.986818],[112.482614,32.983083],[112.48274,32.982345],[112.483016,32.981704],[112.482719,32.98102],[112.482665,32.980892],[112.479948,32.979312],[112.478996,32.980444],[112.478328,32.980809],[112.478272,32.98084],[112.478271,32.98084]]]]}},{"type":"Feature","properties":{"regionCode":"411372006","sourceCode":"411372006000","name":"枣林街道","sourceName":"枣林街道办事处","parentCode":"411372","parentName":"南阳市城乡一体化示范区","regionLevel":"township","regionType":"street","isManagementZone":true,"source":"ruiduobao","sourceVersion":"mixed-legacy~2018-2020","geometryRepaired":false,"match2020":false,"match2023":false,"renderOnly":true,"sourceRegionCode":"411372","displayCountyCode":"411303"},"geometry":{"type":"MultiPolygon","coordinates":[[[[112.522812,32.980001],[112.52329,32.980251],[112.52334710726181,32.98027003575394],[112.52289100017784,32.9798624931947],[112.522812,32.980001]]]]}},{"type":"Feature","properties":{"regionCode":"411372306","sourceCode":"411372306000","name":"新店乡","sourceName":"新店乡","parentCode":"411372","parentName":"南阳市城乡一体化示范区","regionLevel":"township","regionType":"township","isManagementZone":true,"source":"ruiduobao","sourceVersion":"mixed-legacy~2018-2020","geometryRepaired":false,"match2020":false,"match2023":false,"renderOnly":true,"sourceRegionCode":"411372","displayCountyCode":"411303"},"geometry":{"type":"MultiPolygon","coordinates":[[[[112.610751,33.041342],[112.610679,33.04162],[112.610668,33.041919],[112.610689,33.042214],[112.610727,33.04258],[112.61077,33.043235],[112.610813,33.043637],[112.610917,33.044444],[112.611001,33.044865],[112.611144,33.045328],[112.611143,33.045328],[112.611194,33.045508],[112.611242,33.045688],[112.611269,33.045787],[112.611183,33.046196],[112.610866,33.047073],[112.610751,33.047421],[112.610679,33.047725],[112.61062,33.04806],[112.61052,33.048433],[112.610459,33.048851],[112.61044,33.049217],[112.610453,33.049903],[112.610504,33.050681],[112.610596,33.051088],[112.610743,33.05149],[112.610925,33.051875],[112.611411,33.052435],[112.611738,33.05263],[112.612216,33.052882],[112.612696,33.053377],[112.612932,33.053835],[112.613087,33.054465],[112.613117,33.054537],[112.613192,33.054716],[112.613267,33.054896],[112.613361,33.055121],[112.613589,33.055301],[112.613862,33.055569],[112.614128,33.056079],[112.614286,33.05647],[112.614466,33.056749],[112.614884,33.057302],[112.615091,33.057614],[112.615222,33.057873],[112.615512,33.058158],[112.615871,33.058574],[112.616006,33.058925],[112.61655,33.060148],[112.616794,33.060818],[112.616875,33.061189],[112.617239,33.061964],[112.61751,33.062306],[112.61773,33.062699],[112.617972,33.063034],[112.618183,33.063286],[112.618344,33.063517],[112.618488,33.063744],[112.618487,33.063744],[112.618594,33.063924],[112.619004,33.064626],[112.619197,33.064974],[112.619377,33.065376],[112.619584,33.065871],[112.619777,33.066311],[112.620099,33.066992],[112.620233,33.06733],[112.620367,33.067725],[112.620536,33.068035],[112.620568,33.068568],[112.620168,33.068926],[112.61982,33.069429],[112.619739,33.069834],[112.619833,33.070155],[112.619959,33.070479],[112.620091,33.070861],[112.620198,33.071216],[112.620276,33.071524],[112.620426,33.072236],[112.62053,33.072578],[112.620635,33.072777],[112.620635,33.072778],[112.620702,33.072904],[112.620722,33.072951],[112.620721,33.072951],[112.620799,33.073131],[112.62085,33.073237],[112.621118,33.073789],[112.621357,33.07414],[112.621526,33.074423],[112.621496,33.07492],[112.621652,33.075266],[112.62181,33.07565],[112.62196,33.076055],[112.622132,33.076469],[112.6224,33.07695],[112.622724,33.077251],[112.622958,33.077491],[112.623079,33.077869],[112.623223,33.078291],[112.623355,33.078559],[112.623475,33.078819],[112.623703,33.079094],[112.623926,33.079503],[112.623824,33.07977],[112.623717,33.080161],[112.623915,33.080564],[112.624334,33.080678],[112.624736,33.08091],[112.625053,33.081047],[112.625407,33.081184],[112.625889,33.08135],[112.6263,33.081433],[112.62664,33.081462],[112.626925,33.081449],[112.627105,33.081132],[112.627617,33.080887],[112.62818,33.081233],[112.628446,33.081582],[112.628856,33.081849],[112.62907171409195,33.08201983397886],[112.611947050781,33.0505080390626],[112.612659941406,33.0385671210938],[112.61099577407157,33.038307780608854],[112.610751,33.041342]]],[[[112.627907,33.107708],[112.627493,33.10774],[112.627381,33.108248],[112.627008,33.108683],[112.626581,33.109494],[112.626345,33.109769],[112.626343,33.109769],[112.62619,33.109948],[112.62604,33.110128],[112.625804,33.110411],[112.625597,33.110643],[112.625484,33.110964],[112.625366,33.111552],[112.624972,33.112157],[112.624763,33.112489],[112.624613,33.112862],[112.624382,33.113224],[112.624106,33.113505],[112.623081,33.114493],[112.622545,33.115028],[112.622287,33.115295],[112.622057,33.115524],[112.621796,33.115852],[112.621587,33.11618],[112.621475,33.116475],[112.621367,33.116872],[112.62111,33.117641],[112.62085,33.117969],[112.620581,33.118301],[112.620319,33.118607],[112.620048,33.118908],[112.620007,33.118971],[112.620005,33.118971],[112.619892,33.11915],[112.619871,33.119184],[112.619809,33.11933],[112.61981,33.11933],[112.619694,33.119613],[112.619428,33.120453],[112.618956,33.121273],[112.61879,33.12161],[112.618621,33.121927],[112.618479,33.122266],[112.618385,33.12267],[112.617835,33.124077],[112.618363,33.125878],[112.619079,33.127612],[112.619227,33.128351],[112.619635,33.130355],[112.620442,33.132978],[112.62085,33.134719],[112.621051,33.135577],[112.621064,33.135613],[112.621064,33.135612],[112.621813,33.137551],[112.621882,33.137731],[112.62215,33.13842],[112.626809,33.141522],[112.629792,33.143274],[112.63105515276544,33.1436682717536],[112.619010039063,33.1241835761719],[112.62795992855138,33.107713155378384],[112.627907,33.107708]]]]}}]}