{"type":"FeatureCollection","name":"411302-management-zone-display-overlay","features":[{"type":"Feature","properties":{"regionCode":"411371060","sourceCode":"411371060000","name":"张衡街道","sourceName":"张衡街道办事处","parentCode":"411371","parentName":"南阳高新技术产业开发区","regionLevel":"township","regionType":"street","isManagementZone":true,"source":"ruiduobao","sourceVersion":"mixed-legacy~2018-2020","geometryRepaired":false,"match2020":false,"match2023":false,"renderOnly":true,"sourceRegionCode":"411371","displayCountyCode":"411302"},"geometry":{"type":"MultiPolygon","coordinates":[[[[112.5371,33.022986],[112.536553,33.023031],[112.534834,33.023231],[112.533402,33.023337],[112.533267,33.024897],[112.532959,33.024877],[112.53228,33.024832],[112.530679,33.024661],[112.53050951457371,33.02464067273656],[112.530443144531,33.0257546210938],[112.57384268518227,33.032517918080906],[112.573841,33.032512],[112.571642,33.029941],[112.567498,33.029593],[112.565918,33.029269],[112.561468,33.028358],[112.559336,33.027267],[112.559339,33.027267],[112.558987,33.027088],[112.558255,33.026712],[112.554932,33.025864],[112.554017,33.02563],[112.551343,33.024034],[112.549339,33.023004],[112.547593,33.022988],[112.54416,33.022946],[112.54416,33.022945],[112.543945,33.022943],[112.538734,33.022855],[112.537881,33.022831],[112.537071,33.022871],[112.5371,33.022986]]]]}},{"type":"Feature","properties":{"regionCode":"411371401","sourceCode":"411371401000","name":"高新区产业集聚工业园","sourceName":"高新区产业集聚工业园","parentCode":"411371","parentName":"南阳高新技术产业开发区","regionLevel":"township","regionType":"industrialPark","isManagementZone":true,"source":"ruiduobao","sourceVersion":"mixed-legacy~2018-2020","geometryRepaired":false,"match2020":false,"match2023":false,"renderOnly":true,"sourceRegionCode":"411371","displayCountyCode":"411302"},"geometry":{"type":"MultiPolygon","coordinates":[[[[112.565918,32.920594],[112.558767,32.922763],[112.555146,32.923864],[112.554932,32.923929],[112.549662,32.925527],[112.549661,32.925527],[112.549068,32.925707],[112.548476,32.925888],[112.546676,32.926435],[112.549092,32.934929],[112.549133,32.935061],[112.550262,32.934929],[112.554932,32.934386],[112.555146,32.934361],[112.562326,32.933524],[112.562836,32.934749],[112.562911,32.934929],[112.562986,32.935109],[112.565076,32.940108],[112.565703,32.940751],[112.565703,32.940752],[112.565918,32.940971],[112.566039,32.941092],[112.566133,32.941509],[112.566302,32.942258],[112.566288,32.942317],[112.566468,32.943152],[112.566583,32.943865],[112.566608,32.943969],[112.566607,32.943969],[112.56665,32.944149],[112.566693,32.944329],[112.566694,32.944329],[112.566945,32.94536],[112.566554,32.945403],[112.566487,32.945436],[112.56606,32.945502],[112.566133,32.945961],[112.566138,32.945995],[112.566202,32.946112],[112.566304,32.946229],[112.566347,32.946316],[112.566358,32.946681],[112.566371,32.946814],[112.566495,32.946834],[112.566918,32.946807],[112.567573,32.946632],[112.567653,32.946769],[112.56805,32.947989],[112.568785,32.950368],[112.565918,32.950856],[112.565703,32.950899],[112.565548,32.950931],[112.56562,32.951081],[112.565703,32.951411],[112.565703,32.951412],[112.565705,32.951418],[112.565709,32.951433],[112.565832,32.95184],[112.565918,32.952191],[112.565972,32.952407],[112.565918,32.952416],[112.563767,32.952754],[112.563504,32.952765],[112.56341,32.952783],[112.563099,32.952898],[112.562326,32.953035],[112.562348,32.953127],[112.562383,32.953188],[112.562445,32.953294],[112.562477,32.953368],[112.562557,32.953548],[112.562726,32.953926],[112.562828,32.954109],[112.56297,32.954487],[112.562796,32.954547],[112.562257,32.954689],[112.561187,32.954957],[112.561015,32.954989],[112.561219,32.955547],[112.561637,32.956893],[112.561948,32.957847],[112.562034,32.958277],[112.561664,32.958448],[112.561441,32.958533],[112.561184,32.958657],[112.561028,32.958754],[112.561372,32.959476],[112.561321,32.959488],[112.561699,32.960394],[112.561758,32.960385],[112.561809,32.960498],[112.560594,32.961047],[112.560036,32.961229],[112.560036,32.96131],[112.560114,32.961718],[112.559996,32.962109],[112.559931,32.962238],[112.559921,32.962328],[112.559953,32.962366],[112.560108,32.962312],[112.560084,32.962586],[112.560076,32.962692],[112.560095,32.962766],[112.560097,32.962766],[112.560143,32.962926],[112.560379,32.963367],[112.560411,32.963457],[112.56043,32.963545],[112.560414,32.963653],[112.560259,32.963808],[112.560047,32.963986],[112.559786,32.964286],[112.559593,32.964432],[112.559403,32.964607],[112.559371,32.964884],[112.558102,32.965053],[112.55822,32.965415],[112.558343,32.965478],[112.558488,32.965845],[112.558716,32.966705],[112.55896,32.9681],[112.565703,32.969448],[112.565703,32.96945],[112.565813,32.96947],[112.565918,32.969536],[112.566133,32.969664],[112.566133,32.969662],[112.569697,32.971804],[112.572151,32.973275],[112.574509,32.974749],[112.574582,32.974736],[112.574187,32.971804],[112.574042,32.970701],[112.57669,32.969157],[112.576904,32.969031],[112.577119,32.968908],[112.577119,32.968906],[112.578774,32.96794],[112.581912,32.965395],[112.587502,32.962766],[112.587504,32.962766],[112.587676,32.962685],[112.587676,32.962688],[112.587891,32.962586],[112.588105,32.962485],[112.588105,32.962484],[112.588188,32.962445],[112.588207,32.962424],[112.588301,32.962328],[112.591783,32.95737],[112.595258,32.953548],[112.595261,32.953548],[112.595425,32.953368],[112.598877,32.949585],[112.599593,32.948797],[112.602058,32.94665],[112.602163,32.944329],[112.602171,32.944149],[112.602206,32.94342],[112.602254,32.943413],[112.602946,32.943379],[112.602975,32.94335],[112.602994,32.943294],[112.602978,32.943055],[112.603144,32.943039],[112.60433,32.943017],[112.605223,32.942974],[112.605344,32.942999],[112.60533,32.942776],[112.605346,32.942553],[112.605317,32.942222],[112.605432,32.942206],[112.605837,32.941596],[112.609863,32.938629],[112.610078,32.938472],[112.610078,32.938471],[112.611685,32.937288],[112.611073,32.935109],[112.611022,32.934929],[112.60996,32.931151],[112.609863,32.931144],[112.609649,32.931124],[112.609649,32.931125],[112.598877,32.930149],[112.598754,32.930138],[112.589554,32.926604],[112.588896,32.925707],[112.587891,32.924341],[112.587676,32.924048],[112.582279,32.916692],[112.578189,32.917517],[112.577588,32.921567],[112.577119,32.921515],[112.577119,32.921513],[112.576904,32.921491],[112.574616,32.921225],[112.567978,32.919969],[112.566133,32.920531],[112.566133,32.920529],[112.565918,32.920594]]]]}},{"type":"Feature","properties":{"regionCode":"411372005","sourceCode":"411372005000","name":"白河街道","sourceName":"白河街道办事处","parentCode":"411372","parentName":"南阳市城乡一体化示范区","regionLevel":"township","regionType":"street","isManagementZone":true,"source":"ruiduobao","sourceVersion":"mixed-legacy~2018-2020","geometryRepaired":false,"match2020":false,"match2023":false,"renderOnly":true,"sourceRegionCode":"411372","displayCountyCode":"411302"},"geometry":{"type":"MultiPolygon","coordinates":[[[[112.60805,32.942798],[112.607237,32.942848],[112.606859,32.942857],[112.606658,32.942897],[112.606612,32.942767],[112.606567,32.942494],[112.606535,32.942375],[112.606374,32.942155],[112.606336,32.94206],[112.60621,32.942101],[112.605317,32.942222],[112.605346,32.942553],[112.60533,32.942776],[112.605344,32.942999],[112.605223,32.942974],[112.60433,32.943017],[112.603144,32.943039],[112.602978,32.943055],[112.602994,32.943294],[112.602975,32.94335],[112.602946,32.943379],[112.602254,32.943413],[112.602206,32.94342],[112.602179,32.943969],[112.602171,32.944149],[112.602058,32.94665],[112.599593,32.948797],[112.599092,32.949349],[112.599092,32.949348],[112.598877,32.949585],[112.598662,32.949819],[112.598662,32.94982],[112.595589,32.953188],[112.595586,32.953188],[112.595422,32.953368],[112.591783,32.95737],[112.588301,32.962328],[112.588225,32.962406],[112.588223,32.962406],[112.588188,32.962445],[112.588029,32.96252],[112.587885,32.962586],[112.581912,32.965395],[112.578774,32.96794],[112.576904,32.969031],[112.574042,32.970701],[112.574164,32.971624],[112.574163,32.971624],[112.574187,32.971804],[112.574211,32.971984],[112.574582,32.974736],[112.56845,32.975784],[112.567759,32.98084],[112.567758,32.98084],[112.567755,32.980869],[112.569263,32.98102],[112.571062,32.9812],[112.571063,32.9812],[112.572953,32.981389],[112.576904,32.981785],[112.57846,32.981938],[112.583886,32.981767],[112.583894,32.98102],[112.583897,32.98084],[112.583896,32.98084],[112.583913,32.979553],[112.587676,32.979313],[112.587676,32.979315],[112.587757,32.979308],[112.586212,32.977609],[112.587676,32.977415],[112.587676,32.977416],[112.587891,32.977386],[112.588105,32.977357],[112.589178,32.977211],[112.59193,32.980462],[112.592526,32.98084],[112.592525,32.98084],[112.59281,32.98102],[112.593867,32.981691],[112.59544,32.9812],[112.595441,32.9812],[112.596018,32.98102],[112.597627,32.980521],[112.597598,32.980446],[112.598662,32.980092],[112.598662,32.980093],[112.598877,32.980021],[112.599092,32.979951],[112.599092,32.97995],[112.599848,32.979699],[112.598971,32.978275],[112.599092,32.97825],[112.599092,32.978248],[112.600382,32.977958],[112.600958,32.978489],[112.60131,32.978304],[112.601465,32.979139],[112.604499,32.978322],[112.603979,32.977134],[112.606092,32.976509],[112.606009,32.975973],[112.607001,32.975899],[112.606902,32.974526],[112.604684,32.973419],[112.606572,32.971984],[112.606808,32.971804],[112.607047,32.971624],[112.607046,32.971624],[112.607967,32.970926],[112.608649,32.971624],[112.608648,32.971624],[112.608825,32.971804],[112.608833,32.971813],[112.608857,32.971804],[112.609394,32.971624],[112.609393,32.971624],[112.609649,32.971538],[112.609649,32.971541],[112.609863,32.971466],[112.610078,32.971394],[112.610282,32.971324],[112.610466,32.971624],[112.610464,32.971624],[112.610577,32.971804],[112.610687,32.971984],[112.610689,32.971984],[112.610826,32.972204],[112.611599,32.971835],[112.612025,32.971984],[112.612026,32.971984],[112.612098,32.972009],[112.612867,32.971804],[112.615305,32.971153],[112.615754,32.971624],[112.615753,32.971624],[112.615925,32.971804],[112.618092,32.974085],[112.62085,32.977575],[112.622164,32.979234],[112.62085,32.980021],[112.619712,32.980701],[112.619836,32.98084],[112.619997,32.98102],[112.620155,32.9812],[112.620157,32.9812],[112.620635,32.981738],[112.62085,32.981979],[112.620871,32.982001],[112.62085,32.982012],[112.620168,32.982368],[112.620635,32.982792],[112.620635,32.982793],[112.62085,32.982987],[112.621064,32.983182],[112.621064,32.983181],[112.623416,32.985315],[112.621397,32.986897],[112.623135,32.989084],[112.623081,32.990042],[112.623086,32.990056],[112.623084,32.990056],[112.623148,32.990236],[112.623213,32.990416],[112.623379,32.990874],[112.623958,32.991464],[112.624379,32.99116],[112.626101,32.99114],[112.626611,32.990472],[112.626828,32.991007],[112.628934,32.990566],[112.628803,32.99036],[112.628727,32.990236],[112.627563,32.988368],[112.629105,32.987873],[112.628531,32.987102],[112.629234,32.986915],[112.628717,32.985063],[112.630345,32.984744],[112.631621,32.984438],[112.631621,32.98444],[112.631836,32.984388],[112.636559,32.983248],[112.636538,32.983162],[112.637179,32.982791],[112.6394,32.982278],[112.642007,32.981058],[112.641993,32.98102],[112.64194,32.98084],[112.641822,32.980446],[112.642822,32.980251],[112.643037,32.980208],[112.643037,32.980207],[112.643176,32.980179],[112.642876,32.979369],[112.643037,32.979335],[112.643037,32.979334],[112.643522,32.979231],[112.643828,32.97918],[112.643769,32.97882],[112.643705,32.978514],[112.643589,32.978482],[112.643493,32.978428],[112.643436,32.978374],[112.643396,32.978235],[112.643388,32.978181],[112.643461,32.978111],[112.643662,32.977969],[112.643552,32.977823],[112.643482,32.977704],[112.643391,32.977492],[112.642908,32.976619],[112.643037,32.97652],[112.643037,32.976519],[112.643318,32.9763],[112.643573,32.977242],[112.643782,32.977161],[112.642956,32.97456],[112.642822,32.974535],[112.642345,32.974439],[112.639528,32.971984],[112.639529,32.971984],[112.639322,32.971804],[112.632118,32.965519],[112.631836,32.962933],[112.631812,32.962717],[112.631621,32.960982],[112.631621,32.960994],[112.631002,32.955333],[112.628682,32.955076],[112.629291,32.957073],[112.62858,32.957205],[112.627493,32.957455],[112.627552,32.957725],[112.627526,32.958043],[112.62755,32.958211],[112.627633,32.958493],[112.627713,32.958628],[112.627979,32.959211],[112.627992,32.959217],[112.628089,32.959452],[112.627593,32.959544],[112.627048,32.95967],[112.62707,32.959879],[112.627158,32.959931],[112.627249,32.960543],[112.62741,32.960989],[112.625857,32.961261],[112.62557,32.961358],[112.624945,32.961468],[112.624449,32.961533],[112.623658,32.961664],[112.623457,32.961022],[112.625493,32.960503],[112.625047,32.959215],[112.624988,32.959013],[112.62487,32.958945],[112.623583,32.959145],[112.622923,32.9582],[112.622829,32.958106],[112.622539,32.95744],[112.622065,32.957577],[112.62203,32.957523],[112.621968,32.957345],[112.621912,32.957122],[112.621912,32.956996],[112.62189,32.956978],[112.621024,32.957248],[112.62085,32.957336],[112.620825,32.957347],[112.620635,32.957462],[112.620635,32.957463],[112.620294,32.957665],[112.620056,32.957773],[112.619592,32.957896],[112.618642,32.95807],[112.618645,32.958254],[112.618666,32.95852],[112.616065,32.958916],[112.615984,32.958763],[112.615928,32.958623],[112.61592,32.958569],[112.615748,32.958142],[112.615609,32.957838],[112.615555,32.957649],[112.615542,32.957521],[112.615552,32.957444],[112.615507,32.95723],[112.615434,32.957055],[112.615348,32.956764],[112.615252,32.956627],[112.61489,32.956373],[112.614841,32.95628],[112.614772,32.956064],[112.614691,32.956026],[112.614581,32.95601],[112.614152,32.956049],[112.613071,32.956188],[112.613903,32.955263],[112.614434,32.954851],[112.614622,32.954721],[112.614662,32.954647],[112.614691,32.954309],[112.614753,32.953929],[112.614957,32.953884],[112.615043,32.953791],[112.615075,32.953649],[112.615061,32.953368],[112.615056,32.953159],[112.615002,32.952432],[112.615005,32.952196],[112.614954,32.951698],[112.61368,32.951583],[112.613597,32.951565],[112.613337,32.951421],[112.613001,32.951207],[112.612267,32.950685],[112.612135,32.950571],[112.611883,32.949522],[112.611679,32.948853],[112.611746,32.948858],[112.61147,32.947575],[112.611046,32.9459],[112.610789,32.946015],[112.610325,32.946337],[112.610158,32.946391],[112.61004,32.945916],[112.610022,32.945628],[112.610078,32.945295],[112.610078,32.945293],[112.610094,32.945198],[112.61025,32.944777],[112.610537,32.944239],[112.610515,32.944149],[112.610472,32.943946],[112.610204,32.943818],[112.609976,32.94369],[112.609863,32.943645],[112.60934,32.943435],[112.609343,32.943206],[112.608259,32.943235],[112.608246,32.942987],[112.608254,32.942798],[112.60805,32.942798]]]]}},{"type":"Feature","properties":{"regionCode":"411372006","sourceCode":"411372006000","name":"枣林街道","sourceName":"枣林街道办事处","parentCode":"411372","parentName":"南阳市城乡一体化示范区","regionLevel":"township","regionType":"street","isManagementZone":true,"source":"ruiduobao","sourceVersion":"mixed-legacy~2018-2020","geometryRepaired":false,"match2020":false,"match2023":false,"renderOnly":true,"sourceRegionCode":"411372","displayCountyCode":"411302"},"geometry":{"type":"MultiPolygon","coordinates":[[[[112.538696,32.959226],[112.538503,32.962406],[112.538492,32.962586],[112.53823,32.966993],[112.538192,32.967567],[112.537556,32.968023],[112.536365,32.966657],[112.534442,32.968019],[112.535381,32.969581],[112.533251,32.971106],[112.532959,32.971363],[112.532659,32.971624],[112.532656,32.971624],[112.532449,32.971804],[112.531315,32.972801],[112.529019,32.975199],[112.526948,32.975244],[112.524263,32.977983],[112.523274,32.979191],[112.52289100017784,32.9798624931947],[112.52334710726181,32.98027003575394],[112.523668,32.980377],[112.524244,32.980424],[112.524735,32.98055],[112.525084,32.98077],[112.525181,32.98084],[112.52543,32.98102],[112.525527,32.981088],[112.525623,32.9812],[112.525626,32.9812],[112.525862,32.981468],[112.526481,32.981992],[112.527069,32.98244],[112.52731,32.982604],[112.529089,32.983779],[112.529416,32.983934],[112.529815,32.984107],[112.530178,32.98424],[112.531326,32.984634],[112.532294,32.984937],[112.532744,32.985124],[112.532744,32.985126],[112.532814,32.985153],[112.532959,32.985205],[112.533157,32.985275],[112.533174,32.985279],[112.533174,32.985278],[112.533659,32.985383],[112.533965,32.985466],[112.534651,32.98556],[112.536129,32.985749],[112.536679,32.985824],[112.539233,32.986193],[112.539678,32.98626],[112.540568,32.986287],[112.543731,32.986395],[112.543945,32.986404],[112.544372,32.986415],[112.5495,32.987583],[112.549589,32.987538],[112.549916,32.987455],[112.550085,32.987432],[112.550417,32.987421],[112.550927,32.987441],[112.551595,32.987345],[112.551898,32.987273],[112.55325,32.986753],[112.554116,32.986487],[112.554269,32.986492],[112.554932,32.986393],[112.555146,32.986361],[112.555146,32.98636],[112.555388,32.986323],[112.556037,32.986256],[112.556705,32.986161],[112.558137,32.985916],[112.559575,32.985693],[112.56065,32.985493],[112.561227,32.985356],[112.561667,32.985326],[112.562399,32.985302],[112.562871,32.985302],[112.56319,32.985284],[112.563531,32.985126],[112.564427,32.984836],[112.564394,32.984717],[112.564362,32.984465],[112.564258,32.983182],[112.56425,32.982946],[112.564285,32.982906],[112.56437,32.982861],[112.564625,32.982813],[112.564845,32.982755],[112.565017,32.982674],[112.565172,32.98257],[112.565314,32.98237],[112.565674,32.982201],[112.565703,32.982171],[112.565703,32.982172],[112.565918,32.981949],[112.565958,32.981907],[112.566133,32.981805],[112.566178,32.981778],[112.566755,32.981513],[112.566985,32.981389],[112.567329,32.981166],[112.567353,32.98111],[112.567503,32.98102],[112.567755,32.980869],[112.56845,32.975784],[112.574509,32.974749],[112.572151,32.973275],[112.569997,32.971984],[112.569998,32.971984],[112.569697,32.971804],[112.569399,32.971624],[112.569398,32.971624],[112.565918,32.969533],[112.565813,32.96947],[112.558697,32.968048],[112.555972,32.967497],[112.554932,32.967328],[112.554918,32.967326],[112.554908,32.967324],[112.551657,32.966795],[112.551592,32.965179],[112.551544,32.96294],[112.551474,32.962586],[112.551029,32.960253],[112.547113,32.958385],[112.54416,32.958292],[112.54416,32.95829],[112.543945,32.958283],[112.543007,32.958254],[112.538694,32.959087],[112.538696,32.959226]]]]}},{"type":"Feature","properties":{"regionCode":"411372007","sourceCode":"411372007000","name":"姜营街道","sourceName":"姜营街道办事处","parentCode":"411372","parentName":"南阳市城乡一体化示范区","regionLevel":"township","regionType":"street","isManagementZone":true,"source":"ruiduobao","sourceVersion":"mixed-legacy~2018-2020","geometryRepaired":false,"match2020":false,"match2023":false,"renderOnly":true,"sourceRegionCode":"411372","displayCountyCode":"411302"},"geometry":{"type":"MultiPolygon","coordinates":[[[[112.587757,32.979308],[112.583913,32.979553],[112.583894,32.98102],[112.583891,32.9812],[112.583892,32.9812],[112.583886,32.981767],[112.57846,32.981938],[112.577119,32.981806],[112.577119,32.981805],[112.576904,32.981785],[112.57669,32.981763],[112.57669,32.981764],[112.571061,32.9812],[112.571062,32.9812],[112.569263,32.98102],[112.567755,32.980869],[112.567503,32.98102],[112.567353,32.98111],[112.567329,32.981166],[112.567275,32.9812],[112.567277,32.9812],[112.566985,32.981389],[112.566755,32.981513],[112.566178,32.981778],[112.565958,32.981907],[112.565918,32.981949],[112.565674,32.982201],[112.565314,32.98237],[112.565172,32.98257],[112.565017,32.982674],[112.564845,32.982755],[112.564625,32.982813],[112.56437,32.982861],[112.564285,32.982906],[112.56425,32.982946],[112.564258,32.983182],[112.564362,32.984465],[112.564394,32.984717],[112.564427,32.984836],[112.565062,32.984708],[112.565703,32.984558],[112.565703,32.984559],[112.565918,32.984508],[112.566508,32.984366],[112.567189,32.984217],[112.568214,32.984015],[112.569381,32.98381],[112.570134,32.983457],[112.570636,32.983293],[112.571258,32.983167],[112.571446,32.983155],[112.572009,32.983167],[112.572412,32.983223],[112.572806,32.98332],[112.573383,32.983542],[112.573938,32.983785],[112.574461,32.984042],[112.574673,32.984177],[112.574992,32.984472],[112.575228,32.984733],[112.575555,32.985201],[112.575923,32.985794],[112.576231,32.986413],[112.576287,32.986559],[112.57644,32.987097],[112.57669,32.988022],[112.57669,32.988024],[112.576727,32.988161],[112.576936,32.988834],[112.577355,32.990056],[112.577417,32.990236],[112.57747,32.990416],[112.577473,32.990416],[112.578484,32.993653],[112.578726,32.994355],[112.579227,32.995696],[112.579809,32.996674],[112.580099,32.997083],[112.580458,32.99752],[112.580627,32.997767],[112.580793,32.998024],[112.581099,32.998579],[112.581298,32.999014],[112.581397,32.99927],[112.581432,32.99936],[112.581451,32.99945],[112.581494,32.99963],[112.581495,32.99963],[112.581536,32.999801],[112.581553,32.999947],[112.581612,33.000075],[112.581703,33.000192],[112.58203,33.000548],[112.582212,33.000777],[112.582459,33.001045],[112.582824,33.001488],[112.583296,33.002019],[112.583784,33.002514],[112.584455,33.003105],[112.585731,33.004001],[112.586016,33.004167],[112.587201,33.004772],[112.587676,33.004783],[112.587676,33.004786],[112.587891,33.00479],[112.588097,33.004792],[112.588105,33.004795],[112.588105,33.004793],[112.590911,33.004934],[112.591748,33.004853],[112.592351,33.004894],[112.592488,33.004936],[112.592684,33.004959],[112.593263,33.005137],[112.594449,33.005616],[112.595436,33.006156],[112.596141,33.00652],[112.596318,33.006594],[112.59734,33.007111],[112.59774,33.007271],[112.598048,33.007453],[112.598177,33.007548],[112.598271,33.007656],[112.598429,33.008079],[112.598526,33.0084],[112.598578,33.008484],[112.598577,33.008484],[112.598662,33.008619],[112.598662,33.008621],[112.598772,33.008843],[112.598774,33.008843],[112.598788,33.008873],[112.598877,33.009028],[112.599016,33.009269],[112.599092,33.009379],[112.599092,33.009378],[112.599108,33.009401],[112.599258,33.00957],[112.599507,33.009797],[112.599636,33.010049],[112.599655,33.010173],[112.599647,33.01031],[112.599585,33.010551],[112.599556,33.010825],[112.599564,33.010928],[112.599682,33.011151],[112.599754,33.011257],[112.599835,33.011333],[112.600009,33.011462],[112.600368,33.011682],[112.600454,33.011765],[112.600776,33.012163],[112.601058,33.012415],[112.60142,33.01262],[112.601763,33.012836],[112.602383,33.013148],[112.602444,33.013169],[112.602611,33.013144],[112.602911,33.013135],[112.603262,33.013169],[112.603447,33.013247],[112.603531,33.013335],[112.6036,33.013479],[112.603638,33.013623],[112.603812,33.014091],[112.603898,33.014161],[112.604059,33.014246],[112.604472,33.014415],[112.604872,33.014473],[112.605051,33.014473],[112.606046,33.014595],[112.606261,33.01466],[112.606505,33.014766],[112.606688,33.014867],[112.606977,33.015132],[112.607106,33.015231],[112.607203,33.015335],[112.607304,33.015404],[112.607557,33.015494],[112.607983,33.01562],[112.608224,33.015735],[112.608369,33.01585],[112.608503,33.015982],[112.608552,33.01607],[112.60857,33.016131],[112.608541,33.016405],[112.608573,33.016497],[112.608675,33.01661],[112.608774,33.016682],[112.608927,33.016747],[112.609171,33.016769],[112.609338,33.016821],[112.609555,33.016945],[112.609649,33.016986],[112.609649,33.016988],[112.609724,33.017019],[112.609834,33.017114],[112.609863,33.017147],[112.609938,33.017226],[112.610078,33.017426],[112.610078,33.017425],[112.610083,33.017433],[112.610228,33.017611],[112.610305,33.017696],[112.610303,33.017696],[112.610467,33.017876],[112.610628,33.018056],[112.610845,33.018353],[112.61095,33.018524],[112.611143,33.018758],[112.611274,33.018953],[112.611373,33.019142],[112.61143,33.019378],[112.611435,33.019453],[112.611384,33.019554],[112.611143,33.019916],[112.611094,33.020019],[112.61106,33.02026],[112.611089,33.020429],[112.611145,33.020559],[112.611395,33.020824],[112.611604,33.021099],[112.611939,33.021501],[112.612036,33.021684],[112.612226,33.022169],[112.612401,33.023049],[112.612449,33.023597],[112.612457,33.023795],[112.612441,33.023935],[112.612395,33.02413],[112.612352,33.02425],[112.612178,33.024641],[112.612124,33.024695],[112.611985,33.024796],[112.611813,33.024879],[112.611379,33.025282],[112.611309,33.025401],[112.611293,33.025702],[112.611328,33.025797],[112.611467,33.026058],[112.611494,33.026238],[112.611478,33.026343],[112.611448,33.026408],[112.611322,33.026573],[112.611186,33.026721],[112.610968,33.026908],[112.610759,33.027088],[112.61062,33.027209],[112.610545,33.027267],[112.610546,33.027267],[112.610429,33.02736],[112.61022,33.027632],[112.610201,33.027724],[112.610217,33.027818],[112.61026,33.027917],[112.610432,33.028086],[112.610566,33.028257],[112.610778,33.028466],[112.611159,33.028803],[112.611253,33.028941],[112.611309,33.029071],[112.611414,33.029179],[112.611561,33.029291],[112.611741,33.029359],[112.612157,33.029572],[112.612264,33.029541],[112.61247,33.029442],[112.612709,33.029381],[112.613428,33.029233],[112.613634,33.029226],[112.613911,33.029251],[112.614101,33.029289],[112.614394,33.029377],[112.614568,33.029366],[112.61478,33.029321],[112.61519,33.029186],[112.615823,33.029037],[112.616319,33.028864],[112.616789,33.028756],[112.616896,33.028745],[112.617116,33.028668],[112.6174,33.028606],[112.617457,33.028628],[112.617483,33.028725],[112.617526,33.028785],[112.617577,33.028808],[112.61765,33.028806],[112.618028,33.028702],[112.618272,33.028619],[112.619302,33.028313],[112.6196,33.02825],[112.620635,33.027939],[112.620635,33.02794],[112.620663,33.027931],[112.620761,33.027902],[112.62085,33.027872],[112.621064,33.027798],[112.621064,33.027797],[112.621236,33.027737],[112.621485,33.027684],[112.622226,33.027454],[112.622684,33.027342],[112.622824,33.027339],[112.622698,33.027088],[112.621853,33.025394],[112.621201,33.02449],[112.621252,33.024371],[112.621281,33.024337],[112.621351,33.024306],[112.621555,33.024268],[112.621855,33.02418],[112.622062,33.024072],[112.622346,33.024011],[112.622845,33.023845],[112.623156,33.023762],[112.623687,33.023566],[112.62387,33.02351],[112.624218,33.02344],[112.623864,33.022154],[112.62373,33.021753],[112.626219,33.021065],[112.626482,33.020926],[112.627228,33.020746],[112.627324,33.020757],[112.626726,33.019223],[112.626488,33.018596],[112.626469,33.018499],[112.626555,33.018461],[112.627829,33.018121],[112.627933,33.018123],[112.627982,33.017876],[112.627987,33.017849],[112.627673,33.017687],[112.627279,33.016299],[112.627185,33.016021],[112.627115,33.01567],[112.627072,33.015053],[112.627086,33.014696],[112.627201,33.014563],[112.627209,33.01448],[112.626981,33.013706],[112.627311,33.013607],[112.628086,33.013416],[112.628263,33.013418],[112.628191,33.013342],[112.627483,33.011021],[112.627464,33.010933],[112.627526,33.010854],[112.627434,33.010818],[112.627386,33.01071],[112.627214,33.010159],[112.628676,33.009748],[112.629167,33.009622],[112.629272,33.009622],[112.62895,33.008663],[112.628902,33.008513],[112.629282,33.008423],[112.629333,33.008385],[112.629339,33.008346],[112.629232,33.008007],[112.630422,33.007759],[112.630594,33.008484],[112.630637,33.008663],[112.63068,33.008843],[112.630681,33.008843],[112.630758,33.009161],[112.630862,33.009149],[112.631621,33.008935],[112.631621,33.008936],[112.631836,33.008875],[112.632051,33.008814],[112.632576,33.008663],[112.633148,33.008502],[112.633113,33.008385],[112.633435,33.008277],[112.633268,33.007748],[112.633097,33.00773],[112.632552,33.006196],[112.632592,33.006138],[112.633078,33.006196],[112.634,33.006252],[112.634647,33.006203],[112.635325,33.006223],[112.636245,33.006331],[112.636186,33.006428],[112.636138,33.00751],[112.636962,33.007255],[112.637265,33.00717],[112.637375,33.007159],[112.637485,33.007676],[112.637611,33.007678],[112.637946,33.007636],[112.638453,33.007611],[112.638515,33.008261],[112.63907,33.008099],[112.639402,33.007968],[112.639529,33.007946],[112.63973,33.008663],[112.639781,33.008843],[112.639784,33.008843],[112.639893,33.009226],[112.640041,33.009662],[112.640175,33.010164],[112.64043,33.010908],[112.640325,33.010949],[112.639904,33.011063],[112.640111,33.011743],[112.640253,33.012251],[112.640261,33.012343],[112.639563,33.012348],[112.639207,33.012384],[112.637651,33.012611],[112.638383,33.015906],[112.638673,33.017134],[112.638764,33.017098],[112.64169,33.016612],[112.642034,33.017678],[112.642047,33.017696],[112.642044,33.017696],[112.642093,33.017759],[112.642184,33.017721],[112.642608,33.017651],[112.642822,33.017615],[112.643037,33.017579],[112.643801,33.017449],[112.644163,33.017408],[112.644354,33.017462],[112.644517,33.017876],[112.646864,33.023719],[112.6471,33.024384],[112.647693,33.024272],[112.649622,33.023971],[112.651014,33.023726],[112.651153,33.023712],[112.65132,33.024279],[112.651464,33.024702],[112.651553,33.025228],[112.651564,33.025828],[112.651553,33.026208],[112.651502,33.026908],[112.651499,33.026908],[112.651488,33.027088],[112.651475,33.027267],[112.651477,33.027267],[112.651419,33.028145],[112.652529,33.027978],[112.653578,33.0278],[112.653455,33.028941],[112.653809,33.029352],[112.653894,33.029451],[112.654023,33.029563],[112.654031,33.02957],[112.654407,33.029743],[112.654592,33.029777],[112.654906,33.029784],[112.655163,33.029786],[112.655388,33.029764],[112.655324,33.030544],[112.655289,33.030812],[112.655641,33.031007],[112.656593,33.030589],[112.657735,33.030132],[112.658095,33.031414],[112.658127,33.031495],[112.65873,33.030845],[112.659149,33.031751],[112.657915,33.032215],[112.657896,33.032311],[112.658832,33.032849],[112.659452,33.032527],[112.659785,33.033411],[112.660788,33.033973],[112.660855,33.033917],[112.661651,33.03369],[112.6616,33.033505],[112.662,33.033422],[112.66251,33.034677],[112.662587,33.03474],[112.662432,33.034866],[112.662392,33.034933],[112.662335,33.034994],[112.663647,33.035752],[112.663684,33.035768],[112.66458,33.034735],[112.664795,33.034488],[112.665009,33.034241],[112.665009,33.03424],[112.665369,33.033825],[112.668258,33.028592],[112.669046,33.027088],[112.66914,33.026908],[112.669138,33.026908],[112.672026,33.021427],[112.675567,33.018668],[112.675567,33.01867],[112.675781,33.018501],[112.675996,33.018335],[112.675996,33.018333],[112.67654,33.017908],[112.676594,33.017876],[112.676905,33.017696],[112.681296,33.015157],[112.680314,33.011511],[112.679683,33.008843],[112.679684,33.008843],[112.679641,33.008663],[112.677519,32.99963],[112.677476,32.99945],[112.675781,32.992242],[112.675567,32.991331],[112.675567,32.991337],[112.675349,32.990416],[112.675306,32.990236],[112.674585,32.987142],[112.667947,32.986643],[112.664795,32.987804],[112.66458,32.987882],[112.658673,32.990056],[112.658671,32.990056],[112.658183,32.990236],[112.657695,32.990416],[112.656695,32.990784],[112.655801,32.991198],[112.655708,32.990811],[112.655586,32.990416],[112.655587,32.990416],[112.655531,32.990236],[112.65545,32.989999],[112.655286,32.989597],[112.655182,32.989284],[112.655155,32.989115],[112.655053,32.988724],[112.654975,32.988348],[112.654648,32.986546],[112.654104,32.986618],[112.653809,32.986649],[112.65335,32.986694],[112.653406,32.987174],[112.653342,32.987216],[112.652907,32.987295],[112.652765,32.987306],[112.65206,32.987466],[112.651893,32.986361],[112.651429,32.98649],[112.651014,32.98673],[112.651105,32.987264],[112.651228,32.988116],[112.651043,32.988143],[112.65029,32.988209],[112.649962,32.988287],[112.649882,32.988323],[112.649678,32.988357],[112.649434,32.987086],[112.649732,32.987027],[112.649509,32.985875],[112.648924,32.985947],[112.648589,32.986004],[112.648399,32.984996],[112.648334,32.984546],[112.647937,32.984625],[112.647503,32.984746],[112.64709,32.983252],[112.646601,32.983277],[112.646481,32.983293],[112.646068,32.981868],[112.645783,32.981956],[112.645432,32.982102],[112.645365,32.981904],[112.645242,32.981614],[112.645078,32.981117],[112.645051,32.98102],[112.645006,32.98084],[112.645005,32.98084],[112.644909,32.980467],[112.644823,32.980185],[112.644051,32.980417],[112.643715,32.980545],[112.643396,32.980631],[112.643259,32.980683],[112.643139,32.980701],[112.643026,32.980734],[112.642924,32.980788],[112.642822,32.980831],[112.642799,32.98084],[112.642793,32.98084],[112.642342,32.98102],[112.642034,32.981144],[112.642007,32.981058],[112.641701,32.9812],[112.641704,32.9812],[112.6394,32.982278],[112.637179,32.982791],[112.636538,32.983162],[112.636559,32.983248],[112.632051,32.984336],[112.632051,32.984334],[112.631836,32.984386],[112.630345,32.984744],[112.628717,32.985063],[112.629234,32.986915],[112.628531,32.987102],[112.629105,32.987873],[112.627563,32.988368],[112.628615,32.990056],[112.628612,32.990056],[112.628725,32.990236],[112.628803,32.99036],[112.628837,32.990416],[112.628838,32.990416],[112.628934,32.990566],[112.626828,32.991007],[112.626611,32.990472],[112.626101,32.99114],[112.624379,32.99116],[112.623958,32.991464],[112.623379,32.990874],[112.623148,32.990236],[112.623081,32.990042],[112.623135,32.989084],[112.621397,32.986897],[112.623416,32.985315],[112.62085,32.982987],[112.620168,32.982368],[112.620635,32.982124],[112.620635,32.982125],[112.62085,32.982012],[112.620871,32.982001],[112.62085,32.981979],[112.619997,32.98102],[112.619712,32.980701],[112.620635,32.980149],[112.62085,32.980021],[112.621064,32.979893],[112.622164,32.979234],[112.621064,32.977846],[112.621064,32.977845],[112.62085,32.977575],[112.620635,32.977303],[112.620635,32.977304],[112.618092,32.974085],[112.616096,32.971984],[112.616097,32.971984],[112.615925,32.971804],[112.615305,32.971153],[112.613542,32.971624],[112.613541,32.971624],[112.612867,32.971804],[112.612189,32.971984],[112.612191,32.971984],[112.612098,32.972009],[112.611599,32.971835],[112.611288,32.971984],[112.610826,32.972204],[112.610577,32.971804],[112.610282,32.971324],[112.609863,32.971466],[112.609828,32.971477],[112.609798,32.971488],[112.608857,32.971804],[112.608833,32.971813],[112.608825,32.971804],[112.607967,32.970926],[112.606808,32.971804],[112.604684,32.973419],[112.606902,32.974526],[112.607001,32.975899],[112.606009,32.975973],[112.606092,32.976509],[112.603979,32.977134],[112.604499,32.978322],[112.601465,32.979139],[112.60131,32.978304],[112.600958,32.978489],[112.600382,32.977958],[112.598971,32.978275],[112.599092,32.978475],[112.599092,32.978471],[112.599848,32.979699],[112.598877,32.980021],[112.597598,32.980446],[112.597627,32.980521],[112.596598,32.98084],[112.596597,32.98084],[112.596018,32.98102],[112.593867,32.981691],[112.593093,32.9812],[112.593094,32.9812],[112.59281,32.98102],[112.59193,32.980462],[112.589178,32.977211],[112.587891,32.977386],[112.586212,32.977609],[112.587676,32.979219],[112.587676,32.97922],[112.587757,32.979308]]]]}},{"type":"Feature","properties":{"regionCode":"411372306","sourceCode":"411372306000","name":"新店乡","sourceName":"新店乡","parentCode":"411372","parentName":"南阳市城乡一体化示范区","regionLevel":"township","regionType":"township","isManagementZone":true,"source":"ruiduobao","sourceVersion":"mixed-legacy~2018-2020","geometryRepaired":false,"match2020":false,"match2023":false,"renderOnly":true,"sourceRegionCode":"411372","displayCountyCode":"411302"},"geometry":{"type":"MultiPolygon","coordinates":[[[[112.639207,33.012384],[112.639563,33.012348],[112.640261,33.012343],[112.640253,33.012251],[112.640111,33.011743],[112.639904,33.011063],[112.640325,33.010949],[112.64043,33.010908],[112.640175,33.010164],[112.640041,33.009662],[112.639893,33.009226],[112.639732,33.008663],[112.639681,33.008484],[112.639679,33.008484],[112.639529,33.007946],[112.639402,33.007968],[112.63907,33.008099],[112.638515,33.008261],[112.638453,33.007611],[112.637946,33.007636],[112.637611,33.007678],[112.637485,33.007676],[112.637375,33.007159],[112.637265,33.00717],[112.636962,33.007255],[112.636138,33.00751],[112.636186,33.006428],[112.636245,33.006331],[112.635325,33.006223],[112.634647,33.006203],[112.634,33.006252],[112.633078,33.006196],[112.632592,33.006138],[112.632552,33.006196],[112.633097,33.00773],[112.633268,33.007748],[112.633435,33.008277],[112.633113,33.008385],[112.633142,33.008484],[112.633148,33.008502],[112.632576,33.008663],[112.631943,33.008843],[112.631946,33.008843],[112.631836,33.008875],[112.630862,33.009149],[112.630758,33.009161],[112.630637,33.008663],[112.630422,33.007759],[112.629232,33.008007],[112.629339,33.008346],[112.629333,33.008385],[112.629282,33.008423],[112.629025,33.008484],[112.628902,33.008513],[112.62895,33.008663],[112.629009,33.008843],[112.62901,33.008843],[112.629272,33.009622],[112.629167,33.009622],[112.628676,33.009748],[112.627214,33.010159],[112.627386,33.01071],[112.627434,33.010818],[112.627526,33.010854],[112.627464,33.010933],[112.627483,33.011021],[112.628191,33.013342],[112.628263,33.013418],[112.628086,33.013416],[112.627311,33.013607],[112.626981,33.013706],[112.627209,33.01448],[112.627201,33.014563],[112.627086,33.014696],[112.627072,33.015053],[112.627115,33.01567],[112.627185,33.016021],[112.627279,33.016299],[112.627673,33.017687],[112.627691,33.017696],[112.627689,33.017696],[112.627987,33.017849],[112.627982,33.017876],[112.627944,33.018056],[112.627946,33.018056],[112.627933,33.018123],[112.627829,33.018121],[112.626555,33.018461],[112.626469,33.018499],[112.626488,33.018596],[112.626726,33.019223],[112.627324,33.020757],[112.627228,33.020746],[112.626482,33.020926],[112.626219,33.021065],[112.62373,33.021753],[112.623864,33.022154],[112.624218,33.02344],[112.62387,33.02351],[112.623687,33.023566],[112.623156,33.023762],[112.622845,33.023845],[112.622346,33.024011],[112.622062,33.024072],[112.621855,33.02418],[112.621555,33.024268],[112.621351,33.024306],[112.621281,33.024337],[112.621252,33.024371],[112.621201,33.02449],[112.621853,33.025394],[112.622608,33.026908],[112.622606,33.026908],[112.622698,33.027088],[112.622786,33.027267],[112.622788,33.027267],[112.622824,33.027339],[112.622684,33.027342],[112.622226,33.027454],[112.621485,33.027684],[112.621236,33.027737],[112.62085,33.027872],[112.620761,33.027902],[112.6196,33.02825],[112.619302,33.028313],[112.618272,33.028619],[112.618028,33.028702],[112.61765,33.028806],[112.617577,33.028808],[112.617526,33.028785],[112.617483,33.028725],[112.617457,33.028628],[112.6174,33.028606],[112.617116,33.028668],[112.616896,33.028745],[112.616789,33.028756],[112.616319,33.028864],[112.615823,33.029037],[112.61519,33.029186],[112.61478,33.029321],[112.614568,33.029366],[112.614394,33.029377],[112.614101,33.029289],[112.613911,33.029251],[112.613634,33.029226],[112.613428,33.029233],[112.612709,33.029381],[112.61247,33.029442],[112.612264,33.029541],[112.612157,33.029572],[112.6121,33.030218],[112.612098,33.030544],[112.612114,33.030706],[112.612165,33.030888],[112.612191,33.030969],[112.612272,33.031108],[112.612776,33.03159],[112.612849,33.031709],[112.612865,33.031814],[112.612835,33.031943],[112.612792,33.032026],[112.612723,33.032114],[112.612588,33.032422],[112.612551,33.032568],[112.612554,33.032671],[112.612647,33.032941],[112.612763,33.033143],[112.612929,33.033375],[112.612972,33.033481],[112.612969,33.033571],[112.612929,33.033742],[112.61276,33.034045],[112.612655,33.034272],[112.61268,33.03445],[112.612784,33.034789],[112.612878,33.034951],[112.613211,33.035194],[112.613632,33.035689],[112.613683,33.035765],[112.610998,33.035878],[112.610998,33.036118],[112.610998,33.036298],[112.610998,33.036478],[112.611001,33.038243],[112.61099577407157,33.038307780608854],[112.612659941406,33.0385671210938],[112.611947050781,33.0505080390626],[112.62907171409195,33.08201983397886],[112.629154,33.082085],[112.629502,33.082321],[112.629516,33.082337],[112.629687,33.082517],[112.629689,33.082517],[112.629717,33.082546],[112.629907,33.082827],[112.630133,33.083265],[112.630543,33.083485],[112.630554,33.083847],[112.630758,33.084067],[112.631026,33.084267],[112.631294,33.084451],[112.631597,33.084678],[112.631621,33.084697],[112.631621,33.084699],[112.631836,33.084865],[112.631943,33.084948],[112.632051,33.085049],[112.632209,33.085198],[112.632431,33.085505],[112.63263,33.085881],[112.632861,33.086281],[112.633193,33.086661],[112.633625,33.087034],[112.634051,33.087353],[112.634371,33.087618],[112.634593,33.087849],[112.634894,33.088144],[112.635497,33.088784],[112.635688,33.089002],[112.636152,33.089791],[112.636506,33.090285],[112.637029,33.090989],[112.637216,33.091254],[112.637282,33.091362],[112.637281,33.091362],[112.637391,33.091542],[112.637428,33.091602],[112.637482,33.091721],[112.637484,33.091721],[112.637651,33.092076],[112.63786,33.09247],[112.638002,33.092811],[112.638115,33.093207],[112.638193,33.093562],[112.638271,33.094058],[112.638279,33.094625],[112.638193,33.094968],[112.637782,33.095669],[112.637651,33.095928],[112.637479,33.096229],[112.637294,33.096577],[112.637128,33.096908],[112.636862,33.097478],[112.636696,33.0978],[112.636535,33.098098],[112.636315,33.098391],[112.636098,33.098759],[112.635832,33.099128],[112.635503,33.099496],[112.635173,33.099793],[112.63488,33.100044],[112.634617,33.10028],[112.634322,33.100527],[112.634275,33.100566],[112.634274,33.100566],[112.634051,33.100745],[112.633845,33.100925],[112.633847,33.100925],[112.633778,33.100986],[112.633582,33.101202],[112.633317,33.101703],[112.633078,33.102091],[112.632734,33.102453],[112.632512,33.102655],[112.632297,33.102875],[112.632064,33.103132],[112.631836,33.103372],[112.631511,33.103687],[112.630862,33.104349],[112.630586,33.104653],[112.630345,33.104936],[112.630068,33.105298],[112.629755,33.105718],[112.62921,33.106596],[112.628888,33.107014],[112.628652,33.107263],[112.62851,33.107695],[112.628215,33.107738],[112.62795992855138,33.107713155378384],[112.619010039063,33.1241835761719],[112.63105515276544,33.1436682717536],[112.631836,33.143912],[112.632051,33.143979],[112.632051,33.143978],[112.634971,33.144882],[112.637766,33.146571],[112.637764,33.146571],[112.637951,33.146683],[112.637973,33.14675],[112.638035,33.14693],[112.638756,33.149016],[112.63845,33.150853],[112.637621,33.151572],[112.637823,33.153339],[112.63743143090585,33.153878517975265],[112.63993803760602,33.15490858463535],[112.640041,33.154754],[112.640998,33.154675],[112.641774,33.154731],[112.642608,33.154946],[112.642608,33.154947],[112.642785,33.154992],[112.642822,33.155016],[112.643356,33.155358],[112.643629,33.155769],[112.643627,33.155769],[112.643748,33.155948],[112.64389299476018,33.15653383741487],[112.652943144531,33.1602529121094],[112.6565333959847,33.1509452220639],[112.655681,33.150283],[112.653809,33.148623],[112.653632,33.148466],[112.652883,33.147521],[112.653025,33.147087],[112.65305,33.14675],[112.653055,33.146676],[112.65302,33.146312],[112.652945,33.145978],[112.652856,33.145672],[112.652752,33.14536],[112.65262,33.145039],[112.652438,33.144655],[112.651767,33.14344],[112.651623,33.143117],[112.651491,33.142858],[112.651301,33.14253],[112.651542,33.142097],[112.651427,33.141538],[112.651086,33.140669],[112.651151,33.140181],[112.651682,33.140062],[112.651743,33.139438],[112.652097,33.139332],[112.653594,33.138973],[112.653809,33.138921],[112.654023,33.13887],[112.655048,33.138623],[112.655343,33.138492],[112.655539,33.138016],[112.655713,33.137551],[112.655793,33.13734],[112.656147,33.13716],[112.658449,33.13668],[112.660573,33.136204],[112.66232532106608,33.135929715735365],[112.663053007813,33.1340431953125],[112.67225546316449,33.135861611429746],[112.672477,33.135595],[112.675567,33.134347],[112.675567,33.134348],[112.675781,33.134261],[112.675996,33.134175],[112.675996,33.134174],[112.676243,33.134074],[112.677246,33.133886],[112.677782,33.133978],[112.678292,33.13427],[112.678619,33.134265],[112.679,33.134086],[112.679236,33.13334],[112.679501,33.13241],[112.67985,33.132055],[112.680738,33.131943],[112.681918,33.131752],[112.684163,33.131224],[112.684783,33.131141],[112.685083,33.13141],[112.685357,33.131806],[112.685703,33.132848],[112.685896,33.133618],[112.686113,33.134041],[112.686553,33.134595],[112.686719,33.134804],[112.686768,33.134849],[112.687323,33.135346],[112.687776,33.135788],[112.688645,33.136275],[112.689216,33.136666],[112.689638,33.137084],[112.68975,33.137372],[112.689748,33.137372],[112.689793,33.137482],[112.689782,33.137551],[112.689761,33.137731],[112.689762,33.137731],[112.689742,33.137906],[112.689511,33.138209],[112.689098,33.138337],[112.688626,33.138371],[112.687824,33.138355],[112.687427,33.138548],[112.68737237500062,33.13884873117941],[112.69671316934294,33.1406944832457],[112.697405,33.140246],[112.697539,33.140123],[112.697754,33.139925],[112.69828,33.139436],[112.698921,33.138854],[112.699656,33.138544],[112.700361,33.138335],[112.701034,33.137902],[112.701302,33.137551],[112.701498,33.137297],[112.702611,33.136558],[112.705634,33.13502],[112.7058073181856,33.134945729738774],[112.713170195313,33.1296681953125],[112.71722382965129,33.12401264688488],[112.717224,33.123993],[112.71727827663634,33.123936683555435],[112.7179840361046,33.12295202225698],[112.71775,33.122711],[112.717396,33.12258],[112.717085,33.122399],[112.716881,33.122044],[112.716618,33.121738],[112.716688,33.121379],[112.717098,33.121188],[112.717444,33.121033],[112.717447,33.120682],[112.717377,33.120222],[112.717659,33.11988],[112.717828,33.119604],[112.717951,33.119348],[112.718203,33.11915],[112.718222,33.119137],[112.718554,33.118955],[112.718662,33.118636],[112.718839,33.11824],[112.718817,33.117856],[112.718715,33.117481],[112.719061,33.117221],[112.719461,33.117137],[112.719512,33.117136],[112.719512,33.117137],[112.719727,33.117128],[112.719898,33.117119],[112.719941,33.117097],[112.720394,33.116859],[112.72066,33.116538],[112.720883,33.116286],[112.721226,33.116001],[112.72155,33.115756],[112.72184,33.115448],[112.722119,33.1151],[112.722444,33.114749],[112.722664,33.114336],[112.722656,33.113889],[112.722969,33.113435],[112.723492,33.11297],[112.723755,33.112673],[112.724045,33.112314],[112.724227,33.111914],[112.724313,33.111577],[112.724627,33.111242],[112.724949,33.11111],[112.725338,33.11109],[112.725424,33.110667],[112.725837,33.110445],[112.726121,33.110261],[112.726368,33.110052],[112.726373,33.109973],[112.726362,33.109948],[112.726319,33.109838],[112.726059,33.109539],[112.725941,33.109456],[112.725161,33.109074],[112.724976,33.108962],[112.724858,33.108861],[112.724804,33.108668],[112.724764,33.108452],[112.724536,33.107949],[112.724265,33.107524],[112.723766,33.106879],[112.723385,33.106268],[112.722945,33.105444],[112.722715,33.104862],[112.722645,33.104704],[112.722551,33.104547],[112.722336,33.104246],[112.722141,33.104037],[112.72166,33.103725],[112.721497,33.103518],[112.721411,33.103363],[112.721371,33.103248],[112.721349,33.103026],[112.721314,33.102875],[112.721245,33.1027],[112.7211,33.102451],[112.72088,33.102109],[112.720757,33.101889],[112.720445,33.101464],[112.720322,33.101224],[112.720113,33.100907],[112.719992,33.100745],[112.719955,33.100694],[112.719778,33.100485],[112.719727,33.100411],[112.719638,33.100276],[112.719477,33.100067],[112.71933,33.099811],[112.719179,33.099579],[112.7189,33.099193],[112.718651,33.098928],[112.718503,33.098723],[112.718195,33.098492],[112.71801,33.098368],[112.717852,33.098289],[112.717237,33.098042],[112.71698,33.097881],[112.716851,33.097827],[112.716731,33.097748],[112.716602,33.097618],[112.716312,33.097078],[112.715891,33.09658],[112.715566,33.096164],[112.715153,33.095762],[112.714577,33.095225],[112.714459,33.09513],[112.714271,33.094923],[112.714166,33.09475],[112.713831,33.094368],[112.713321,33.093816],[112.71301,33.093503],[112.712847,33.093364],[112.712729,33.093209],[112.712546,33.093016],[112.712356,33.092852],[112.712305,33.092789],[112.712066,33.092647],[112.711742,33.092483],[112.711106,33.092011],[112.711047,33.091739],[112.711063,33.091542],[112.711066,33.091515],[112.710891,33.091146],[112.710671,33.090849],[112.710567,33.090497],[112.710529,33.090191],[112.710492,33.089989],[112.710556,33.08984],[112.710709,33.089739],[112.710856,33.089587],[112.710913,33.089508],[112.710918,33.089407],[112.710851,33.089193],[112.710803,33.088971],[112.710757,33.088863],[112.710688,33.088735],[112.710435,33.08842],[112.710358,33.088294],[112.710315,33.088157],[112.71025,33.087867],[112.710223,33.087566],[112.710229,33.087443],[112.710264,33.087254],[112.710406,33.086944],[112.710438,33.086793],[112.71039,33.086649],[112.710253,33.086422],[112.710205,33.086263],[112.710229,33.08611],[112.710272,33.085998],[112.710344,33.085912],[112.710435,33.085849],[112.710553,33.085791],[112.71098,33.085658],[112.711181,33.085577],[112.711433,33.085438],[112.71157,33.085319],[112.711932,33.084849],[112.712082,33.084629],[112.712208,33.084496],[112.712691,33.084063],[112.713037,33.083813],[112.71322,33.083708],[112.713466,33.083541],[112.713783,33.08322],[112.713842,33.083022],[112.713869,33.082854],[112.713922,33.082723],[112.713962,33.08255],[112.713976,33.082337],[112.713941,33.082209],[112.713705,33.082058],[112.713619,33.081979],[112.713592,33.081885],[112.713608,33.081732],[112.713684,33.081595],[112.713893,33.081332],[112.714032,33.081175],[112.714032,33.081076],[112.713957,33.08097],[112.713842,33.08088],[112.713673,33.080802],[112.713391,33.080779],[112.713292,33.08075],[112.713182,33.080687],[112.713026,33.080458],[112.712914,33.080337],[112.712774,33.080226],[112.712318,33.079779],[112.712072,33.079474],[112.712031,33.07937],[112.712082,33.079291],[112.712171,33.079244],[112.712267,33.079157],[112.712407,33.078905],[112.71242,33.078806],[112.712369,33.078732],[112.71227,33.078651],[112.712165,33.078601],[112.711895,33.078561],[112.711889,33.078673],[112.711841,33.078718],[112.711637,33.078822],[112.711578,33.078887],[112.711565,33.078954],[112.71135,33.079116],[112.711143,33.079323],[112.71106,33.079366],[112.711001,33.079363],[112.710878,33.079229],[112.710824,33.07919],[112.710757,33.079197],[112.710513,33.079294],[112.710325,33.079413],[112.710264,33.079469],[112.710181,33.079512],[112.709768,33.079586],[112.709556,33.079642],[112.709151,33.079772],[112.708971,33.079804],[112.708888,33.079835],[112.70874,33.079919],[112.708633,33.079977],[112.708456,33.079981],[112.708314,33.080022],[112.708265,33.080053],[112.708126,33.080105],[112.70767,33.080033],[112.707531,33.080022],[112.707402,33.080089],[112.707375,33.080247],[112.707544,33.081404],[112.707618,33.082157],[112.707616,33.082157],[112.707635,33.082334],[112.707533,33.082337],[112.70723,33.082343],[112.70705,33.082382],[112.706721,33.082409],[112.706302,33.082463],[112.705868,33.082492],[112.705693,33.082517],[112.705694,33.082517],[112.705583,33.082532],[112.704851,33.082593],[112.704046,33.0826],[112.704135,33.083047],[112.702094,33.083413],[112.70211,33.083476],[112.702123,33.08373],[112.702172,33.083971],[112.702177,33.084121],[112.70134,33.084229],[112.701412,33.084609],[112.701316,33.084634],[112.700774,33.084726],[112.700302,33.084753],[112.700042,33.084822],[112.699736,33.08344],[112.699151,33.083544],[112.699444,33.084849],[112.699401,33.08484],[112.699084,33.084865],[112.69887,33.084894],[112.698534,33.084966],[112.69785,33.084986],[112.697754,33.085013],[112.697749,33.085013],[112.697642,33.085031],[112.697183,33.085101],[112.696858,33.08511],[112.69622,33.085173],[112.695563,33.085287],[112.695187,33.085321],[112.694516,33.085422],[112.693942,33.085492],[112.693419,33.085575],[112.69328,33.085027],[112.693242,33.084834],[112.693221,33.084629],[112.693047,33.084191],[112.69298,33.084054],[112.692958,33.083804],[112.692864,33.083508],[112.689259,33.084047],[112.689192,33.083811],[112.688492,33.083901],[112.688288,33.083595],[112.688098,33.083386],[112.687988,33.083209],[112.687891,33.083009],[112.686768,33.083211],[112.686642,33.083231],[112.686237,33.083314],[112.685829,33.082885],[112.685469,33.082921],[112.684989,33.083033],[112.684962,33.08297],[112.68471,33.082595],[112.683941,33.082824],[112.683396,33.083009],[112.683232,33.083096],[112.682039,33.083472],[112.682028,33.083409],[112.681685,33.08282],[112.681602,33.082777],[112.681551,33.082667],[112.681422,33.082337],[112.681392,33.082254],[112.681197,33.081995],[112.681116,33.081858],[112.681065,33.081689],[112.680802,33.081242],[112.680655,33.080966],[112.680556,33.080741],[112.680513,33.080498],[112.681717,33.080033],[112.681258,33.078649],[112.681406,33.078604],[112.680894,33.077556],[112.680765,33.077314],[112.680658,33.077033],[112.68055,33.076797],[112.679829,33.075228],[112.679746,33.075077],[112.678995,33.074967],[112.677383,33.074599],[112.676779,33.074536],[112.676594,33.074529],[112.675878,33.074635],[112.675781,33.074657],[112.674901,33.074841],[112.67377,33.074992],[112.673166,33.073326],[112.673104,33.073131],[112.67274,33.071964],[112.672887,33.071848],[112.673378,33.071665],[112.674051,33.071472],[112.67392,33.071205],[112.673869,33.071038],[112.673869,33.070953],[112.673893,33.070897],[112.675368,33.070533],[112.675781,33.070393],[112.675961,33.07033],[112.675891,33.070128],[112.675781,33.069883],[112.675754,33.069822],[112.675781,33.069818],[112.676446,33.069672],[112.675958,33.068485],[112.675781,33.067961],[112.675585,33.067381],[112.675781,33.067307],[112.675948,33.067242],[112.675781,33.066894],[112.675553,33.066413],[112.675293,33.065801],[112.674993,33.065066],[112.674939,33.064904],[112.674939,33.064859],[112.674977,33.064823],[112.675567,33.064621],[112.675781,33.064547],[112.675996,33.064473],[112.676261,33.064381],[112.676015,33.063924],[112.675996,33.063889],[112.675996,33.063888],[112.675897,33.063702],[112.675781,33.063551],[112.67572,33.06347],[112.675408,33.06334],[112.675781,33.063214],[112.675996,33.063142],[112.675996,33.063138],[112.677632,33.062575],[112.67867,33.062292],[112.678522,33.061948],[112.678477,33.061759],[112.678407,33.061568],[112.678364,33.06149],[112.678209,33.061099],[112.680252,33.060532],[112.680271,33.06044],[112.680255,33.060301],[112.679936,33.059491],[112.681363,33.059129],[112.684751,33.058338],[112.684826,33.05852],[112.686038,33.058255],[112.686768,33.05803],[112.687588,33.057774],[112.687427,33.057587],[112.687135,33.057365],[112.686768,33.05694],[112.686585,33.056729],[112.685861,33.056225],[112.685746,33.056108],[112.685636,33.05591],[112.686,33.055753],[112.686553,33.05556],[112.686553,33.055562],[112.686768,33.055485],[112.686971,33.055413],[112.68692,33.055285],[112.686768,33.054971],[112.686644,33.054716],[112.686545,33.054512],[112.686405,33.054148],[112.686768,33.054033],[112.687945,33.053653],[112.688122,33.053615],[112.688259,33.053617],[112.687811,33.052187],[112.687814,33.052111],[112.687704,33.051886],[112.687545,33.051403],[112.687481,33.051164],[112.687382,33.050922],[112.687237,33.050369],[112.689364,33.049762],[112.689485,33.049744],[112.689579,33.049755],[112.689686,33.049746],[112.690254,33.049582],[112.690018,33.048966],[112.689898,33.048428],[112.690287,33.048624],[112.691405,33.048399],[112.691231,33.047862],[112.690115,33.048125],[112.689887,33.048039],[112.68978,33.047967],[112.689726,33.047682],[112.689265,33.047794],[112.689069,33.04786],[112.688967,33.047961],[112.686767,33.046854],[112.686336,33.046636],[112.685869,33.046416],[112.685732,33.045892],[112.686553,33.045697],[112.686553,33.045699],[112.686695,33.045663],[112.686768,33.04564],[112.686824,33.04562],[112.686768,33.0454],[112.686714,33.045186],[112.686768,33.045173],[112.686982,33.045117],[112.686982,33.045115],[112.687328,33.045022],[112.686996,33.043905],[112.687178,33.04388],[112.686923,33.04281],[112.686781,33.042281],[112.686768,33.042284],[112.686459,33.04232],[112.686076,33.042387],[112.686054,33.042356],[112.685984,33.042117],[112.685941,33.042034],[112.684498,33.042389],[112.684257,33.042464],[112.683667,33.040584],[112.683031,33.040878],[112.68272,33.041067],[112.683082,33.042104],[112.683208,33.042544],[112.68331,33.042673],[112.682766,33.042799],[112.682449,33.042855],[112.681687,33.043059],[112.681186,33.042034],[112.681057,33.042124],[112.680558,33.042396],[112.680692,33.042655],[112.680539,33.042841],[112.679373,33.043223],[112.679319,33.043289],[112.679319,33.043343],[112.679249,33.043493],[112.679174,33.043612],[112.67885,33.043489],[112.678399,33.043648],[112.678198,33.043747],[112.677965,33.04388],[112.677187,33.044357],[112.677128,33.04442],[112.677002,33.044496],[112.676519,33.044748],[112.67609,33.04502],[112.675781,33.045184],[112.67565,33.045254],[112.675521,33.045296],[112.675395,33.04504],[112.674966,33.045063],[112.674741,33.045054],[112.674065,33.043259],[112.672568,33.043541],[112.672619,33.043673],[112.671718,33.043826],[112.670905,33.043983],[112.67035,33.044055],[112.670291,33.043804],[112.670084,33.043152],[112.668993,33.043347],[112.668899,33.04361],[112.668805,33.043806],[112.668271,33.04451],[112.668306,33.044667],[112.66837,33.044842],[112.668199,33.044867],[112.66748,33.04502],[112.667166,33.043945],[112.667045,33.043597],[112.666858,33.04294],[112.667289,33.042846],[112.66818,33.042693],[112.668046,33.042155],[112.667861,33.041146],[112.666522,33.041321],[112.665908,33.0378],[112.665307,33.037888],[112.665009,33.037924],[112.664795,33.037951],[112.664363,33.038],[112.664242,33.037254],[112.66458,33.037202],[112.664795,33.037168],[112.665817,33.037004],[112.664961,33.036514],[112.664795,33.036492],[112.664747,33.036485],[112.664052,33.036593],[112.663993,33.036298],[112.663929,33.035952],[112.663888,33.035866],[112.663647,33.035752],[112.662335,33.034994],[112.662392,33.034933],[112.662432,33.034866],[112.662587,33.03474],[112.66251,33.034677],[112.662,33.033422],[112.6616,33.033505],[112.661651,33.03369],[112.660855,33.033917],[112.660788,33.033973],[112.659785,33.033411],[112.659452,33.032527],[112.658832,33.032849],[112.657896,33.032311],[112.657915,33.032215],[112.659149,33.031751],[112.65873,33.030845],[112.658127,33.031495],[112.658095,33.031414],[112.657735,33.030132],[112.656593,33.030589],[112.655641,33.031007],[112.655289,33.030812],[112.655324,33.030544],[112.655388,33.029764],[112.655163,33.029786],[112.654906,33.029784],[112.654592,33.029777],[112.654407,33.029743],[112.654031,33.02957],[112.653894,33.029451],[112.653809,33.029352],[112.653594,33.029102],[112.653594,33.029103],[112.653455,33.028941],[112.653578,33.0278],[112.652529,33.027978],[112.651419,33.028145],[112.651488,33.027088],[112.651553,33.026208],[112.651564,33.025828],[112.651553,33.025228],[112.651464,33.024702],[112.65132,33.024279],[112.651153,33.023712],[112.651014,33.023726],[112.649622,33.023971],[112.647693,33.024272],[112.6471,33.024384],[112.646864,33.023719],[112.64459,33.018056],[112.644517,33.017876],[112.644448,33.017696],[112.644446,33.017696],[112.644354,33.017462],[112.644163,33.017408],[112.643801,33.017449],[112.642822,33.017615],[112.642333,33.017696],[112.642329,33.017696],[112.642184,33.017721],[112.642093,33.017759],[112.642034,33.017678],[112.64169,33.016612],[112.638764,33.017098],[112.638673,33.017134],[112.638383,33.015906],[112.637651,33.012611],[112.639207,33.012384]]],[[[112.636677,33.154918],[112.636064,33.155769],[112.636063,33.155769],[112.635934,33.155948],[112.634623,33.157776],[112.631836,33.160859],[112.630994,33.161789],[112.630353,33.163843],[112.63231922735675,33.163843],[112.632496,33.163381],[112.632802,33.163026],[112.633266,33.162305],[112.63362,33.161964],[112.634027,33.16189],[112.63444,33.161746],[112.634754,33.161521],[112.634993,33.161306],[112.635465,33.16085],[112.635765,33.160599],[112.636122,33.159912],[112.636382,33.159577],[112.636675,33.159215],[112.636975,33.158782],[112.636828,33.158416],[112.636699,33.158028],[112.637058,33.15759],[112.637345,33.15728956367042],[112.637345,33.15399760558465],[112.636677,33.154918]]]]}}]}