{"type":"FeatureCollection","name":"411322-management-zone-display-overlay","features":[{"type":"Feature","properties":{"regionCode":"411372306","sourceCode":"411372306000","name":"新店乡","sourceName":"新店乡","parentCode":"411372","parentName":"南阳市城乡一体化示范区","regionLevel":"township","regionType":"township","isManagementZone":true,"source":"ruiduobao","sourceVersion":"mixed-legacy~2018-2020","geometryRepaired":false,"match2020":false,"match2023":false,"renderOnly":true,"sourceRegionCode":"411372","displayCountyCode":"411322"},"geometry":{"type":"MultiPolygon","coordinates":[[[[112.637345,33.15399760558465],[112.637345,33.15728956367042],[112.637592,33.157031],[112.63779,33.156815],[112.638249,33.156483],[112.638716,33.156521],[112.639201,33.155948],[112.639335,33.155769],[112.639333,33.155769],[112.639676,33.155302],[112.63993803760602,33.15490858463535],[112.63743143090585,33.153878517975265],[112.637345,33.15399760558465]]],[[[112.6305,33.165145],[112.630519,33.165325],[112.63052,33.165325],[112.630578,33.165853],[112.63083,33.165538],[112.631069,33.165145],[112.631106,33.165087],[112.631332,33.164647],[112.631568,33.164326],[112.631621,33.164263],[112.631814,33.164036],[112.631836,33.164032],[112.632051,33.16398],[112.632289,33.163922],[112.63231922735675,33.163843],[112.630353,33.163843],[112.6305,33.165145]]],[[[112.643946,33.156748],[112.644461,33.157464],[112.644976,33.15798],[112.645252,33.158501],[112.645775,33.159442],[112.646658,33.160776],[112.647001,33.161645],[112.647216,33.161991],[112.648388,33.162923],[112.64872,33.163167],[112.649024,33.163639],[112.649544,33.164355],[112.649962,33.164598],[112.65029,33.164642],[112.650673,33.164564],[112.651285,33.164007],[112.651687,33.163327],[112.652151,33.162747],[112.652636,33.16248],[112.653025,33.162406],[112.653369,33.162164],[112.653594,33.161821],[112.653594,33.161822],[112.653809,33.16151],[112.653846,33.161454],[112.654023,33.161349],[112.654023,33.161347],[112.654434,33.161097],[112.655077,33.160664],[112.655305,33.160262],[112.655359,33.159889],[112.655203,33.159516],[112.655013,33.158921],[112.655048,33.15827],[112.655708,33.157938],[112.656861,33.157823],[112.657808,33.157686],[112.657676,33.155948],[112.657665,33.155824],[112.65765,33.155594],[112.657585,33.154309],[112.657591,33.153981],[112.657456,33.152883],[112.657317,33.151554],[112.6565333959847,33.1509452220639],[112.652943144531,33.1602529121094],[112.64389299476018,33.15653383741487],[112.643946,33.156748]]],[[[112.662496,33.135903],[112.663853,33.13566],[112.664328,33.13573],[112.66458,33.1359],[112.66469,33.135975],[112.664795,33.136145],[112.664873,33.136271],[112.665009,33.136406],[112.665009,33.136405],[112.665326,33.136713],[112.665715,33.136882],[112.666294,33.137014],[112.667373,33.136684],[112.667442,33.136316],[112.667863,33.136183],[112.669628,33.135552],[112.669846,33.136179],[112.670092,33.136352],[112.670369,33.136832],[112.670875,33.136963],[112.671318,33.136882],[112.671817,33.136678],[112.672021,33.136424],[112.672246,33.135873],[112.67225546316449,33.135861611429746],[112.663053007813,33.1340431953125],[112.66232532106608,33.135929715735365],[112.662496,33.135903]]],[[[112.687334,33.13906],[112.687588,33.13993],[112.688023,33.140972],[112.688036,33.141569],[112.687924,33.141922],[112.687572,33.142124],[112.686982,33.142266],[112.686982,33.142265],[112.686768,33.142317],[112.686569,33.142362],[112.685826,33.142373],[112.685201,33.142256],[112.684877,33.142286],[112.684555,33.14249],[112.684182,33.142894],[112.6843,33.143532],[112.684083,33.143936],[112.684394,33.144221],[112.684769,33.144401],[112.685118,33.144478],[112.685475,33.144475],[112.685842,33.144765],[112.686357,33.145192],[112.686553,33.145315],[112.686768,33.14545],[112.686874,33.145517],[112.686982,33.145587],[112.686982,33.145586],[112.68736,33.145825],[112.687964,33.145567],[112.688726,33.145102],[112.689364,33.144419],[112.689887,33.143889],[112.690209,33.143611],[112.69056,33.14348],[112.691687,33.143514],[112.692253,33.143557],[112.692666,33.143426],[112.693867,33.142737],[112.694685,33.142178],[112.696029,33.141138],[112.69671316934294,33.1406944832457],[112.68737237500062,33.13884873117941],[112.687334,33.13906]]],[[[112.708397,33.133836],[112.708526,33.133816],[112.70874,33.133782],[112.708941,33.133749],[112.708955,33.133769],[112.708955,33.133768],[112.709255,33.134202],[112.709481,33.134566],[112.709676,33.134973],[112.709934,33.135341],[112.710207,33.135608],[112.710521,33.135896],[112.710862,33.136269],[112.711149,33.136552],[112.711926,33.137372],[112.711924,33.137372],[112.711932,33.137378],[112.712259,33.137423],[112.712793,33.137342],[112.713351,33.137084],[112.713941,33.137053],[112.7143,33.137221],[112.714409,33.137372],[112.714408,33.137372],[112.714539,33.137551],[112.714606,33.137641],[112.714652,33.137731],[112.714976,33.13836],[112.715338,33.138802],[112.715824,33.139321],[112.716092,33.13944],[112.716387,33.139386],[112.717707,33.138571],[112.719512,33.13756],[112.719512,33.137565],[112.719727,33.137443],[112.719915,33.137337],[112.719941,33.137322],[112.719992,33.137293],[112.722342,33.136069],[112.721929,33.135319],[112.721609,33.134777],[112.721001,33.133996],[112.719955,33.132745],[112.719727,33.132507],[112.7197,33.132477],[112.719599,33.132373],[112.719179,33.131932],[112.719002,33.131539],[112.718772,33.130993],[112.718423,33.130469],[112.71823,33.130112],[112.717967,33.129443],[112.717468,33.12858],[112.71738,33.128351],[112.717283,33.1281],[112.717699,33.127599],[112.719316,33.126828],[112.719512,33.126698],[112.719512,33.1267],[112.719681,33.126586],[112.719391,33.126154],[112.717221,33.124339],[112.71722382965129,33.12401264688488],[112.713170195313,33.1296681953125],[112.7058073181856,33.134945729738774],[112.708397,33.133836]]],[[[112.717836,33.123358],[112.718018,33.122987],[112.7179840361046,33.12295202225698],[112.71727827663634,33.123936683555435],[112.717836,33.123358]]]]}}]}